acct_id,username,phone,email,verified,full_name,address,city,created_at,last_login_at
9eee06a5-8e04-4489-a2f0-13e224469fba,dheinreichb,807-445-2302,sheinreichb@java.com,TRUE,Charlotte Morgan,54106 Cherokee Point,San Francisco,07-07-15,11-12-24
c3de9ca4-8b0b-4c2a-a5d1-52853eee03ee,vblaslib2,544-524-7782,dblaslib2@yolasite.com,TRUE,Sebastian Fisher,510 Lighthouse Bay Crossing,New York,15-07-15,05-05-25
d6b3d7a0-d98d-401d-91b7-aa45b8420295,bstiffgc,790-301-5422,tobraygc@abc.net.au,FALSE,Aiden Barrett,02 Anthes Drive,Washington DC,19-07-15,29-08-25
36702b20-5ce7-47d6-8973-2e7f8a571be4,mkinseyap,366-779-0315,mkinseyap@quantcast.com,TRUE,Caleb Kraus,3 Clove Center,Santa Fe,21-07-15,04-11-25
645a6b9b-6113-4977-80d8-4a02c487b36a,aklynbi,839-801-6160,mklynbi@techcrunch.com,TRUE,Caleb Stevens,366 Petterle Junction,Washington DC,31-07-15,23-03-25
d4161d2b-cdb0-4949-bca8-86b0f1927e1b,megeee,675-834-1051,wrobroeee@ibm.com,FALSE,Lucas Pope,84459 Tennessee Alley,Seattle,08-08-15,21-11-25
5bdc912d-1d19-4cc7-99ac-daedda0cc560,rrubinovitch5o,,mrubinovitch5o@aol.com,TRUE,Hudson Carr,2 Arrowood Point,Houston,10-08-15,22-03-25
94db5e1e-4f10-46a5-9cb7-a687580ccbe8,tlottehz,598-944-0263,krodolfihz@marriott.com,TRUE,Gabriel Henson,7 Scofield Drive,Spokane,20-08-15,01-02-25
8478727c-7304-433f-a684-f80f842dd51c,idiclaudioz,681-507-8007,fdiclaudioz@globo.com,TRUE,Violet Diaz,91 Killdeer Terrace,Austin,24-08-15,10-08-25
c1d8f466-7268-4a0b-9a4c-1c248db3cd12,csancias4b,862-568-2600,lsancias4b@pagesperso-orange.fr,TRUE,John Barrett,,Washington DC,25-08-15,24-06-25
e11b9b01-6485-4024-8afd-f42a7d397abd,gpaulla7,299-188-0770,jpaulla7@samsung.com,TRUE,Julian Whitaker,3 Elka Way,Minneapolis,12-09-15,27-11-24
33915937-7837-4fba-882f-f5fe3764a0c2,khowlerg9,603-358-1325,jhowlerg9@adobe.com,FALSE,Oliver Hoffman,51 Colorado Drive,Austin,18-09-15,26-10-25
e19c9bdc-83cf-4e81-bde3-50f533b86db6,kfilintsevae,636-280-5382,bfilintsevae@nba.com,TRUE,Thomas McGee,,Philadelphia,21-09-15,28-08-25
c6af1b53-a507-47d1-8a1e-d9c8c3635024,jeppleav,501-544-7586,reppleav@nymag.com,TRUE,Lincoln Brooks,,San Francisco,22-09-15,18-03-25
3aa4bc91-4dab-4725-99c7-96106e139576,clohering2d,727-956-2897,alohering2d@stumbleupon.com,FALSE,Ruby Brewer,4 Meadow Valley Terrace,Seattle,25-09-15,21-06-25
8d1a4ac8-1926-4ddc-b282-1c8aa6dc5df9,lvandaalen9c,,lvandaalen9c@pagesperso-orange.fr,TRUE,Lincoln Warner,9 Magdeline Point,San Francisco,28-09-15,09-08-25
5c86d921-659a-4bcc-b419-5f0081596bad,rnetti9n,506-796-8266,anetti9n@arizona.edu,TRUE,Eli Goodwin,922 Arrowood Alley,Seattle,29-09-15,31-07-25
236d02bc-628a-415c-84d0-c8eaeec4f57e,klinleyl,647-688-0764,tespadaterl@nps.gov,TRUE,Aria Foster,57365 Petterle Trail,Seattle,04-10-15,15-02-25
1bac8f27-1ce5-4c13-99d5-7646f82787c0,ckirtley45,170-843-5046,ckirtley45@hatena.ne.jp,TRUE,Samuel Stone,91494 Morrow Place,Austin,05-10-15,25-04-25
e2a8a1ef-81ae-4ab3-a71b-cfd2dd915e3e,dscripps75,432-505-1309,rscripps75@free.fr,TRUE,Evan Madden,076 Graedel Hill,New York,05-10-15,14-07-25
e5f3326b-9535-4aca-8299-a2ef4de7a405,trathjen2q,475-908-3059,srathjen2q@qq.com,TRUE,Brielle Lynch,726 Killdeer Way,Austin,18-10-15,07-11-25
b8b218c2-9962-4a44-9f30-66cbc68452d3,mkingsnod3r,881-118-8205,ekingsnod3r@washington.edu,TRUE,Alexander Rivera,,New York,20-10-15,11-03-25
b4b452eb-7538-4549-bd24-bc901265671f,gdongateid,647-191-4618,bdongateid@is.gd,TRUE,Ethan Sullivan,1 Kipling Place,Seattle,01-11-15,24-06-25
6a092064-26e9-4b00-84be-5e20254a8c58,tatterley8e,915-378-5723,mdundridge8e@ezinearticles.com,TRUE,Asher Carter,30 Lotheville Court,San Francisco,22-11-15,25-09-25
6d400892-6160-4868-ad9a-3f2b11f82669,jmilburne2f,484-363-6713,bmilburne2f@google.es,TRUE,Quinn Webb,811 Dexter Place,Seattle,28-11-15,11-06-25
9b6d2f03-69b8-4053-b411-8573d568e082,aspear8m,986-114-9019,fspear8m@cnet.com,FALSE,Zayden Barnes,4174 Mockingbird Park,New York,09-12-15,10-02-25
87a81e22-6084-4f6e-a48a-9ec4e35a418c,jbendixene5,218-661-3346,ftroppmanne5@wix.com,FALSE,Gabriel Warner,726 Clemons Parkway,San Francisco,10-12-15,26-04-25
cf5f2849-24f6-4342-801c-666aa945030d,epercy53,,rpercy53@apache.org,FALSE,Christian Tate,83642 Novick Drive,Austin,13-12-15,19-02-25
1aec87c8-a791-4d79-a5be-702621e2b532,wlaybournhq,540-457-2306,vlaybournhq@sbwire.com,TRUE,Grayson French,3416 Sachtjen Pass,Burlington,19-12-15,18-02-25
b354f0cb-f40e-4c6f-a7bb-68041a1c2991,ztavnerc4,608-358-1563,ttavnerc4@jugem.jp,FALSE,Anthony Brewer,2954 Merchant Street,Boston,20-12-15,17-02-25
3e7c8aa5-52b2-42ae-aca8-ac44fc2583d8,emaund1d,660-993-2268,lmaund1d@google.cn,TRUE,Julia Hamilton,1710 Petterle Street,New York,22-12-15,23-01-25
7e61a233-dcbf-4ea8-a89f-281325acc176,brabjohn9b,627-598-0856,nrabjohn9b@uol.com.br,TRUE,Maxwell Horton,6 Di Loreto Avenue,San Francisco,25-12-15,27-12-24
fac7e903-0f6e-441b-9f7c-a2efe6cc7833,hhattoniu,797-870-8714,bhattoniu@ow.ly,FALSE,Grayson Burke,7 Macpherson Circle,San Jose,16-01-16,24-03-25
9a586291-940d-4341-86a1-aef68b0125aa,rbrittocp,221-409-2615,djurschcp@flavors.me,TRUE,Zion Bishop,7254 Brown Drive,Portland,29-01-16,27-09-25
cf4a1e88-6474-4688-baf5-b7179dc04a48,eabrahamson9x,,labrahamson9x@scribd.com,TRUE,Liam Curtis,6750 Nova Avenue,Austin,01-02-16,19-02-25
bef58b97-1d71-4219-bd19-9f2e1825755d,pjessopphr,,doverellhr@studiopress.com,TRUE,Owen Estes,40 Victoria Parkway,Bend,06-02-16,26-05-25
543a382e-b69f-4b7b-aa1d-865e94c21c5f,mwasmuth10,403-857-4596,awasmuth10@wordpress.com,TRUE,Aurora Butler,493 Coleman Avenue,Washington DC,08-02-16,27-09-25
ac470194-eaed-4f71-9394-fb92759430b8,gpaddingtoni5,872-399-6120,ypaddingtoni5@forbes.com,TRUE,Nathan Bryant,756 Superior Park,New York,12-02-16,12-10-25
fef9df5e-fbbd-4638-87dd-c796c34f7b91,gsomerled5m,477-313-1747,dsomerled5m@storify.com,TRUE,Jonah Vaughn,26411 Waxwing Avenue,Atlanta,21-02-16,10-09-25
446cd3d3-18f9-4c04-927f-3a56bc752e6a,ifenning1p,998-592-3107,vfenning1p@reference.com,FALSE,Anna Hoffman,6419 Spenser Street,Boston,26-02-16,13-03-25
fa8cd15c-5c45-4c48-a38b-98e6ff03bf75,rcromleyat,537-272-2474,dcromleyat@google.de,TRUE,Brayden Carter,844 Burning Wood Way,San Francisco,01-03-16,18-06-25
16d8c188-6d80-4eee-8f0c-cdff525c35f4,sbwyebq,732-772-7693,ghalsworthbq@china.com.cn,FALSE,Isaiah Horton,2 Riverside Way,San Francisco,09-03-16,20-12-24
1fe8477b-6fbe-48fa-b59f-07133ee45b9e,scanningjd,868-486-3347,ecanningjd@npr.org,TRUE,Alexander Webb,79043 Pleasure Hill,Boston,11-03-16,28-09-25
f103d6e7-d9b9-49ed-9a35-981519265da6,rspaceyaq,,lspaceyaq@symantec.com,TRUE,Isaiah McKnight,,Richmond,12-03-16,04-10-25
d597c823-cea4-40d1-a568-fea699b9fd30,mmacinherneyay,260-681-4636,pmacinherneyay@facebook.com,TRUE,Leo Bryant,2 Luster Parkway,New York,12-03-16,08-12-24
d34296a2-8ba6-4bc5-be83-3fa5dd6d79fb,kamburgyb7,155-263-4464,yamburgyb7@joomla.org,TRUE,Matthew Wallace,5102 Mosinee Circle,Seattle,12-03-16,03-01-25
1436a144-1b0e-4a10-a4d3-c5b4de914607,gvelden43,970-835-6764,avelden43@ow.ly,TRUE,Jack Coleman,9 Lawn Pass,Boston,14-03-16,03-04-25
352db343-333b-4070-99ea-9162d1d03bdf,igoding5l,596-714-6406,mgoding5l@altervista.org,TRUE,Silas McGee,,Philadelphia,15-03-16,23-11-25
ecb02ce1-8de5-450d-8147-4e26949f05ab,sabramsfp,941-422-2627,babramsfp@phpbb.com,TRUE,Landon Powell,12267 Westend Place,San Francisco,15-03-16,15-02-25
198287a2-ac8b-4f39-89be-a0cbe4c2e135,jwinterbottom5,119-446-0507,chutchason5@princeton.edu,TRUE,Emma Gomez,55 Pepper Wood Court,San Jose,18-03-16,15-07-25
f30718ea-9018-440a-80d2-1b8b4d9e64a4,pluigij7,466-601-6861,hluigij7@google.ru,TRUE,Caleb Pope,427 Eggendart Circle,Seattle,29-03-16,06-01-25
0409d86e-d1ba-4d16-9681-0dffd4d2d594,gbromage5f,549-970-8856,abromage5f@addtoany.com,TRUE,Ryder Duke,12 Sauthoff Court,Raleigh,14-04-16,21-08-25
e4d7fe8d-afe7-4cba-a48a-5be1af877862,abrenstuhlgj,602-402-0863,dbrenstuhlgj@goo.ne.jp,TRUE,Daniel Horton,46 Ronald Regan Avenue,San Francisco,17-04-16,20-10-25
7fc05900-5570-47d1-bb38-f8ad05c5bbd6,shansendp,566-574-4990,hmerrelldp@yandex.ru,FALSE,Benjamin Coleman,78176 Barnett Parkway,Boston,29-04-16,05-07-25
fb17f7a0-84c0-4650-88ec-5de67ad77400,bflea70,220-222-4639,tflea70@yale.edu,TRUE,Lincoln Townsend,7 Shoshone Lane,San Francisco,02-05-16,01-09-25
729f8593-133e-40c9-afd7-09f8bc19ec76,amidgelydf,731-276-4481,gmidgelydf@barnesandnoble.com,TRUE,Sebastian Barnes,8 Fairfield Street,New York,04-05-16,21-06-25
bce09f4a-9297-4524-9748-5854b3d0bc1e,adooleas,391-843-6094,sdooleas@cargocollective.com,FALSE,Jacob Briggs,1954 Manufacturers Pass,New York,11-05-16,07-12-24
aa545ea7-9182-4985-949a-62c680e98581,rshovelton9e,171-630-3206,mshovelton9e@prnewswire.com,TRUE,Asher Townsend,3914 Paget Point,San Francisco,23-05-16,22-02-25
bcd40f55-1c09-4c5d-98f2-768fae06d08c,kgregorioi9,784-814-1036,egregorioi9@aol.com,TRUE,Lucas Fisher,3250 Bashford Park,New York,24-05-16,08-03-25
62f39f05-2e7e-4e53-970c-9849ba815b93,ksycamore28,933-399-4571,nsycamore28@devhub.com,FALSE,Piper McCarthy,160 Hoepker Avenue,New York,28-05-16,20-05-25
cd789245-c4bb-45b4-836c-5eaabfa4b28a,hmackieew,,mmackieew@stanford.edu,FALSE,Joseph Holloway,40047 Garrison Lane,Washington DC,31-05-16,29-05-25
7e1543c0-0b3d-45f7-8557-9dca6efe25fc,gbaltzar7z,148-275-8001,lbaltzar7z@sohu.com,TRUE,Emiliano Donaldson,786 Hanover Center,San Diego,02-06-16,05-03-25
1f9d6ae7-bb7e-48ba-be2d-03b1e847f54c,lmckevittaa,988-128-7872,pmckevittaa@youtube.com,FALSE,Joshua Bishop,35 Marquette Road,Portland,06-06-16,28-12-24
727b2914-a1db-42b1-ae22-bbf58c1178a5,mnialsey,324-574-0690,lnialsey@histats.com,TRUE,Ethan Phelps,52938 Anniversary Road,San Jose,08-06-16,15-01-25
0925984e-c142-4373-8d21-c0cb552d9d82,umothersdale6n,165-767-7637,tmothersdale6n@trellian.com,TRUE,Declan Hoffman,473 Stoughton Center,Austin,17-06-16,22-06-25
83904eca-54d3-4253-8a49-ca2acd2718b6,mkowalskiih,262-538-9954,xkowalskiih@theguardian.com,TRUE,Isaiah Perry,9 2nd Trail,Boston,27-06-16,10-01-25
81091a02-84d3-4c9c-9d0a-dc8c70986cf1,wsygroves9p,,esygroves9p@newsvine.com,TRUE,Oliver Brewer,64 Prentice Junction,Boston,10-07-16,09-12-24
adf5a53a-087b-4047-a0b8-8177a2e8d4ec,cmcalpineil,262-692-8730,smcalpineil@wikimedia.org,FALSE,Ethan Mills,578 Pepper Wood Junction,Austin,12-07-16,03-12-24
889c18fc-bdd3-4fa7-b2d9-7b07a337248f,plindelofa5,265-146-7573,alindelofa5@yelp.com,TRUE,Michael Phelps,8409 Thackeray Crossing,San Jose,13-07-16,08-01-25
1daed9bb-6806-476d-84b1-534d0695dcbb,fgounot2,322-211-5556,agounot2@woothemes.com,TRUE,Liam Rodriguez,7347 Butterfield Avenue,New York,15-07-16,03-05-25
4d0ec0b7-71e9-432d-88d8-fa033b87531d,mtashds,630-722-6961,umatusiakds@wsj.com,TRUE,Matthew Mills,,Austin,21-07-16,06-02-25
f0f750f7-2d34-4731-97f3-270b2d2c068a,afeatleyh7,641-398-7023,afeatleyh7@woothemes.com,TRUE,David Berry,2 Golden Leaf Lane,Washington DC,31-07-16,21-08-25
d7ca0446-d506-41f5-8496-7508aba33868,mbroadleycu,,abroadleycu@wikipedia.org,TRUE,Ian Vaughn,8 Bay Avenue,Atlanta,04-08-16,19-10-25
73c879d7-51ec-422f-a660-c7acd98830aa,raleksich3b,386-563-0719,naleksich3b@artisteer.com,TRUE,Ainsley McClure,77238 Lien Street,Burlington,05-08-16,22-01-25
92398d57-2c85-4417-89c3-115135a104e0,kkundt9i,313-325-9435,bkundt9i@princeton.edu,TRUE,Nathan Johnston,708 Menomonie Crossing,New York,19-08-16,18-06-25
916cf585-9e21-463b-a6a6-2ad92fea0ce7,rcabrerae3,300-865-2810,pcabrerae3@parallels.com,TRUE,Isaac Shelton,,San Francisco,26-08-16,07-10-25
28fd6000-2d0c-4aa0-a551-bcd86a4d6b18,mabbisir,873-412-0338,aabbisir@tinypic.com,TRUE,Leo Little,6 Grim Lane,Washington DC,27-08-16,14-05-25
412abc4b-5bae-47b5-9ea5-bff0fb4f2b07,dtween74,671-352-0696,dsuddaby74@gnu.org,TRUE,Beckett Johnston,1 Thackeray Hill,New York,31-08-16,22-07-25
38fc8ee7-7126-459a-a21a-0bd283e80529,dcobden31,964-239-9729,fcobden31@wikimedia.org,TRUE,Kyleigh Donaldson,6 Nelson Plaza,Raleigh,15-09-16,15-08-25
c517abfa-84e8-46bb-b00d-92c58a17cb43,epearlede,447-510-0377,gpearlede@upenn.edu,FALSE,Dominic Hayes,696 Lien Junction,New York,17-09-16,19-11-25
8644da1c-2512-4cec-91ed-68244698fa44,fcrathernh8,564-600-5004,scrathernh8@nps.gov,FALSE,Joseph Thornton,2 Prairie Rose Plaza,Washington DC,17-09-16,01-10-25
37a74de7-9ce7-4988-9c3f-07013da7b37f,kfazackerleye9,159-231-6554,kfazackerleye9@google.co.uk,TRUE,Jackson Erickson,11 Kim Court,New York,01-10-16,13-12-24
682b5ade-9ba4-4ca5-a285-ad46b79f3f6a,rkesonc2,615-541-4649,mluchellic2@gmpg.org,FALSE,Angel Goodwin,2690 Eagle Crest Park,Seattle,09-10-16,18-11-25
f99e59ad-3c19-4961-9c18-fcea60d40ee5,mgoymer2m,757-524-2037,vgoymer2m@furl.net,TRUE,Eva Armstrong,16 1st Court,Boston,11-10-16,01-08-25
3772cf39-a8cb-49fe-8b34-dd83e477dde5,jcurmi3s,147-351-8788,efoulds3s@hud.gov,TRUE,Sebastian Hayes,04272 Schurz Court,New York,12-10-16,16-11-25
dac9aa08-8720-489c-8ef9-d1337bd1667e,lflintiffba,957-704-3673,dflintiffba@kickstarter.com,TRUE,David Perry,92443 La Follette Hill,Boston,15-10-16,14-05-25
3fa2287a-4a0c-4d9a-80bd-b71866870b6d,rbardwallaw,987-739-4181,cbardwallaw@ow.ly,TRUE,Maverick Powell,58378 Daystar Way,San Francisco,27-10-16,27-02-25
3fe34a2e-2e2c-481e-9db2-966a02a2f8b2,karrighettic7,555-473-1947,farrighettic7@google.co.uk,TRUE,Christian Allen,5 Onsgard Pass,Boston,29-10-16,22-05-25
1661b987-23d5-4286-b3ef-b0d0a8f24677,ahrynczyk1t,829-136-0061,chrynczyk1t@statcounter.com,TRUE,Caroline Little,3 Montana Park,Austin,27-11-16,22-06-25
e3c33200-039d-4b5c-ba3a-750bf1b5a0ac,atingcombab,487-507-0077,stingcombab@si.edu,TRUE,Andrew Harrington,13501 Sycamore Road,Nashville,03-12-16,08-04-25
0602f037-9b7f-4e59-9715-fa2274a9688c,egarforth9f,119-710-0916,bgarforth9f@fc2.com,TRUE,Caleb Griffin,1 Oxford Terrace,New York,04-12-16,16-07-25
1f729f65-80e7-4d9f-b750-d1bcf589620f,aedsall1o,239-453-6673,ledsall1o@about.com,TRUE,Hailey Lane,88849 Spaight Pass,Boston,05-12-16,04-02-25
64595df1-9e45-4751-841b-b6449b649a56,tshillakerfh,429-570-2133,jhanafordfh@chron.com,TRUE,Jackson Barlow,1 Sutteridge Street,Boise,11-12-16,30-11-24
2e509849-6fbf-4833-9b02-309268ff1fc1,lratnage7x,830-351-9407,aratnage7x@cam.ac.uk,FALSE,Malik Harrington,0871 Sunfield Place,Nashville,12-12-16,22-03-25
46df5190-bca2-4ceb-b4c7-12f7b59ce83d,gogara8b,359-377-2686,celbourne8b@eventbrite.com,TRUE,Tyson Kraus,7526 Maple Avenue,Santa Fe,27-12-16,03-09-25
25b814e6-7fa2-4b1b-a30f-6ba05526f829,gwilsonec1,977-515-9724,gwilsonec1@dyndns.org,FALSE,Eli Shepherd,656 Bashford Crossing,Seattle,27-12-16,25-04-25
5334d171-6861-4ac9-bf8a-d35b924efd11,swilkinson6z,722-694-4514,pwilkinson6z@webs.com,TRUE,Carter Burns,829 Hanson Pass,San Francisco,06-01-17,19-04-25
e81b1f78-27a6-4e3d-bc6e-980e331c2e0b,slechmere6,888-438-2801,slechmere6@ca.gov,TRUE,Isabella Hughes,6 Oak Lane,Washington DC,10-01-17,22-02-25
e8ee7b4d-d5fb-4a3c-8984-51897609093a,jstandishbrooksgm,201-725-2464,sstandishbrooksgm@scientificamerican.com,TRUE,Benjamin Townsend,,San Francisco,30-01-17,14-02-25
09522720-eb23-4757-8830-7d6f3fea9248,dbeiderbeckdn,485-101-7269,rkynsondn@miibeian.gov.cn,FALSE,James Peters,17653 Mallard Street,Boston,10-02-17,07-01-25
a6f1fc95-1838-4a31-8c61-446ca7dc01cf,cperez5s,152-888-2960,nperez5s@cmu.edu,TRUE,Finn Salazar,25598 Mifflin Way,Ann Arbor,12-02-17,24-10-25
b177d138-5574-47a0-9524-7c0d0e8e7a91,karmytage6c,711-531-4120,marmytage6c@java.com,TRUE,Xander Graham,5 Welch Crossing,Seattle,25-02-17,25-03-25
5aeda594-8714-4baa-97f5-dfc14d319957,tscampfa,649-897-1424,ascampfa@sina.com.cn,TRUE,Christopher Carr,927 Summer Ridge Place,Houston,04-03-17,30-01-25
dc48f39b-344c-4151-adce-7acfc85f1380,cgarnsworthydw,785-534-7949,kgarnsworthydw@alexa.com,TRUE,Christopher Stevens,03484 Stone Corner Hill,Washington DC,07-03-17,07-08-25
f1aff037-d344-43cb-b4f7-9b71939abea0,jflinders57,903-404-4923,nflinders57@slideshare.net,TRUE,Nicholas Thornton,4 Vermont Terrace,Washington DC,10-03-17,01-10-25
837e3ccc-cf31-442b-879a-31d8d375b9d2,lheathornec,107-514-7471,vheathornec@indiatimes.com,TRUE,Daniel Madden,1 Express Hill,New York,11-03-17,08-12-24
79d5975d-27af-4fe7-9a7c-d2ce82c0dbce,ebence6e,161-429-5453,nbence6e@tamu.edu,TRUE,Nathaniel Wallace,89704 Pine View Center,Seattle,16-03-17,24-08-25
a4dd1504-2751-43b8-978e-1e9fb6f8de74,fflookj1,500-162-2243,jflookj1@t-online.de,TRUE,Nathan Griffin,5 Valley Edge Terrace,New York,17-03-17,23-09-25
74dc5be4-3341-49f5-bae7-0e52a885c56f,bgive8n,,rgive8n@godaddy.com,TRUE,Liam Fisher,9 Mandrake Street,New York,29-03-17,22-11-25
48a7115b-b2e2-410a-9b81-bd4a9cf8f8da,cdennei1,912-668-1049,pdennei1@hhs.gov,TRUE,Xavier Ward,3 Heffernan Center,San Francisco,30-03-17,06-04-25
3d707305-70a4-4b4d-a312-44ac22ccce9f,swiltshierah,218-766-3904,rwiltshierah@alexa.com,TRUE,Nicholas Carr,94903 Schiller Parkway,Houston,06-04-17,03-06-25
068c6e21-5aa0-43b8-b19a-330cab6f3396,adrewco,842-981-1386,kdrewco@samsung.com,TRUE,Tyler Monroe,71 Arrowood Court,Charlotte,19-04-17,02-08-25
34ea2a7e-b17e-4803-bd61-48b7ee526142,amclanachanhc,660-526-3045,vmclanachanhc@cam.ac.uk,FALSE,Caleb Baxter,31151 Luster Hill,San Jose,25-04-17,01-04-25
293140f4-f142-464c-b836-5babac6b2c0b,arickardes2a,838-607-7271,mrickardes2a@wix.com,FALSE,Lydia Shepherd,47132 6th Crossing,New York,01-05-17,06-05-25
d906f4f9-cddd-44db-bbd1-ecbcaadcaa93,jquennell2g,716-401-8138,mquennell2g@army.mil,FALSE,Delilah Allen,839 Fuller Avenue,Seattle,02-05-17,19-03-25
8acc7445-0c14-4f19-b06a-b8d1bdc8f66e,sharbottlebh,590-293-9922,nsearlebh@jimdo.com,TRUE,Owen Riley,1392 Cody Lane,Austin,04-05-17,07-07-25
b3e358fd-a831-4bb0-b807-9d53fc9ba763,sgamlenw,565-356-1672,rwilcew@studiopress.com,TRUE,Lily Ross,09184 Morning Parkway,Austin,20-05-17,21-07-25
e41f590c-9c80-43fd-b820-5989bb91cc63,ajaffrey1c,772-636-2844,mjaffrey1c@google.de,TRUE,Claire Ford,98 Tomscot Park,New York,22-05-17,30-08-25
344f1d34-bbd1-4708-b19e-d87a639d7f5b,lpasfieldii,882-586-9897,fpasfieldii@123-reg.co.uk,FALSE,Gabriel Coleman,2225 Donald Center,Boston,24-05-17,21-09-25
0b0b5378-ac68-458f-8362-38f480926908,rleeson26,349-142-1794,mleeson26@cbc.ca,TRUE,Liliana Johnston,27334 Parkside Terrace,San Francisco,25-05-17,04-06-25
8257bf6e-9709-4495-ade7-4d9f1710d9ee,jcantos4e,458-666-3435,hcantos4e@slate.com,TRUE,Isaac Baldwin,82 Lien Junction,Washington DC,29-05-17,04-08-25
146312b7-9c8c-40e3-9491-a677c1b995a6,sratledge2u,881-240-7847,bratledge2u@biglobe.ne.jp,TRUE,Genevieve Moyer,005 Heffernan Park,Washington DC,06-06-17,29-01-25
957ecdae-691f-4cb7-b6b3-6253c804f737,rohlsench,398-349-4224,bohlsench@pbs.org,TRUE,Roman Lynch,683 Ridgeview Lane,Washington DC,10-06-17,07-08-25
fd8460af-a838-4885-9e28-3d3ee2f3ef0f,jdohmer7t,539-209-7701,fdohmer7t@nationalgeographic.com,TRUE,Andres Whitaker,61490 Green Court,Minneapolis,14-06-17,22-01-25
0c6fb52e-3f18-4166-9d63-92c97a946f1b,ssummerlygn,828-425-9433,jsummerlygn@tinypic.com,FALSE,Sebastian Griffin,23 Morrow Pass,New York,10-07-17,21-11-25
8a6ed98b-bdcb-4b9a-b2db-07347f2a8422,mciccettifq,311-934-0736,isaveallfq@pagesperso-orange.fr,TRUE,Asher Foster,40 Carberry Crossing,San Francisco,11-07-17,06-04-25
e3e25dc8-c5e6-48cf-b64a-092dce6f18fe,kyaknovbt,684-563-6456,eyaknovbt@tinypic.com,FALSE,Jackson Townsend,000 John Wall Way,San Francisco,25-07-17,14-09-25
aca4a2b7-ca41-48d7-b6a0-3df566fd55c3,psimbn,988-182-3565,ksimbn@washingtonpost.com,TRUE,Logan Burke,51 Mockingbird Circle,San Jose,28-07-17,02-04-25
53070a56-497d-445d-85ed-ec54708988a4,hadanh4,656-642-9268,madanh4@mysql.com,FALSE,Benjamin Tate,18 Orin Alley,Austin,08-08-17,02-12-24
cd863852-b0fe-484c-b8d6-48345f55f812,pginie3f,635-389-1103,kginie3f@studiopress.com,TRUE,Avianna Yates,,Charleston,09-08-17,25-06-25
e2b71b96-48fe-4c9f-84d2-5dd6bc37ee93,creaderhk,,zsmalleshk@slideshare.net,TRUE,Sebastian Caldwell,63 Westridge Center,Salt Lake City,11-08-17,10-04-25
70b5796d-c55b-4e13-ba8c-cedc46dfb19b,bconechiea4,728-569-0530,cconechiea4@eventbrite.com,TRUE,Jacob Baxter,322 Laurel Street,San Jose,16-08-17,13-07-25
5bd85524-9dcd-4b21-bf27-139d0a475cc3,rouldred6y,941-141-2231,zouldred6y@privacy.gov.au,TRUE,Harrison Warner,1199 Glacier Hill Drive,San Francisco,22-08-17,08-01-25
ad242fc4-520c-4d6b-8d76-f6f4fb2c0808,aadriaanb6,934-709-4759,wadriaanb6@goodreads.com,TRUE,Daniel Sullivan,0621 Butterfield Terrace,Seattle,26-08-17,01-09-25
e58e453e-268d-4788-90e6-25d69c281017,mwixey1,167-776-1423,ekleeborn1@mapy.cz,TRUE,Ava Thompson,951 Rusk Park,San Francisco,06-09-17,08-02-25
891f06b7-42df-4795-9de2-ab1938ab64da,sbrumblejc,,kbrumblejc@imdb.com,FALSE,James Norman,6 Brentwood Junction,Boston,11-09-17,17-10-25
dbb38196-aeab-4571-ab1e-24e63d192b95,dlandreth1g,357-985-0879,clandreth1g@nasa.gov,TRUE,Alice Wallace,48027 Anzinger Court,New York,27-09-17,13-10-25
36e61a8f-5058-4c64-95da-448c2ec828f0,nambrogini3h,603-300-1017,sambrogini3h@tinyurl.com,TRUE,Ailani Barlow,8 Tennyson Center,Boise,27-09-17,23-02-25
44ed1d19-a28f-4652-add7-cfc2cf2d8700,farlotthy,663-491-4684,tarlotthy@unesco.org,TRUE,Aiden McKnight,40838 Harbort Avenue,Richmond,30-09-17,21-12-24
9aaeb723-4ba4-4e21-baa3-664efad04e71,rmacardle83,717-467-9925,pmacardle83@weebly.com,FALSE,Israel Carr,595 Golf Drive,Houston,02-10-17,28-02-25
7a3520ed-ccf4-4ef6-b184-f2be8831e0ad,qcromeh2,661-603-1338,lbloxsomeh2@soundcloud.com,TRUE,Ethan Lyons,6 Southridge Crossing,Austin,03-10-17,07-08-25
22c399f8-6828-4f4a-af7f-fb7c7cb1226e,skaszper3c,406-557-4059,rkaszper3c@epa.gov,TRUE,Eliana Estes,732 Kings Court,Bend,13-10-17,13-02-25
3a9c170c-4da3-4a60-8e9c-becc0e71c37e,kenglandg2,732-684-3841,benglandg2@icq.com,FALSE,Mateo Peters,5791 Drewry Court,Boston,20-10-17,22-04-25
75c8b8b3-4de8-46e9-b8e2-7ffba5752ab6,tpoe3x,738-793-7258,gpoe3x@theglobeandmail.com,TRUE,Jackson Graham,7799 Prairie Rose Road,Seattle,24-10-17,07-05-25
68c85367-735e-45ea-9c11-45f852f99b4e,xyeardsley7h,965-518-4853,eyeardsley7h@si.edu,FALSE,River Barker,0 Village Green Alley,Austin,28-10-17,10-04-25
6917c2c7-2d3c-4792-b745-ba7f2fffb346,cshelbornedz,,mshelbornedz@tamu.edu,TRUE,Logan Jacobs,19 Kim Trail,Washington DC,14-11-17,07-08-25
49a15dea-f310-455d-ac55-a79d35c37fda,sdackombe20,345-846-3353,pdackombe20@google.com.au,TRUE,Elena Warner,,Washington DC,15-11-17,10-05-25
5e6d0a66-4fd4-46ce-ba5e-61e1671db03c,oleftbridge5n,533-889-3830,cleftbridge5n@msn.com,TRUE,Luis Stuart,02 Paget Junction,Dallas,02-12-17,18-08-25
936dea46-17f9-40b7-ad7e-35f34d5fb472,nwardlefb,837-193-4297,twardlefb@zimbio.com,TRUE,Joshua French,04 Fulton Trail,Burlington,02-12-17,11-06-25
7b37505a-47f9-4b17-ae87-6388dc3e66f1,ahatchard4y,783-175-7682,bhatchard4y@businessweek.com,FALSE,Carson Webb,3746 Melvin Parkway,Boston,08-12-17,30-09-25
41c9a01f-fbd0-439d-9e16-4ede64858fc9,jcurnokek,597-507-2093,gdurnoek@jugem.jp,FALSE,Ryan Webb,44378 Farwell Circle,Boston,11-12-17,18-07-25
94140104-5555-4db4-b20a-84651d412063,pellicef2,,sellicef2@netscape.com,FALSE,Nathan Monroe,3693 Waywood Hill,Charlotte,13-12-17,26-04-25
24abd2bf-bb7e-42e7-917a-daa2f76818b8,dklimontovichfx,314-774-1056,bklimontovichfx@freewebs.com,TRUE,Julian Hamilton,3051 Waubesa Crossing,Seattle,16-12-17,27-11-24
a84d7c68-f285-4f0b-b12b-8afd3b467516,rmcmennuma0,297-771-6924,lmcmennuma0@cdbaby.com,TRUE,Alexander Thornton,56910 Nobel Court,Washington DC,24-12-17,11-09-25
a85c9a7f-e6bc-498d-9837-b4f49d400067,ameneghellie7,717-657-5366,smeneghellie7@harvard.edu,TRUE,Sebastian Townsend,8 Artisan Alley,San Francisco,24-12-17,14-11-25
7763181e-8b35-4e96-ba6e-5432fbc4195b,cgrubyeq,,ggrubyeq@soundcloud.com,FALSE,Jonathan Curtis,77 Goodland Street,Austin,25-12-17,10-07-25
aa682e42-c93d-4dc4-a64c-6c24d1c7108e,ycudbertson5w,509-724-7940,lmilham5w@ihg.com,TRUE,Theo Kraus,686 Redwing Crossing,Santa Fe,26-12-17,29-12-24
2d8b2e62-bd63-47fa-a4d3-389bba4834dc,dtremontana6h,263-235-9064,rtremontana6h@pinterest.com,TRUE,Ian Perry,67 Myrtle Lane,Boston,23-01-18,22-02-25
8e95203d-710f-4f50-8b6b-fa5d9df3afaf,bmcsharrya6,804-580-5833,pmcsharrya6@ovh.net,TRUE,Gabriel Moyer,8 Blaine Place,Denver,29-01-18,17-09-25
1a84d3ca-9dfb-46d9-bff7-e6fa7b648334,wkennerknechtax,287-650-3728,rcurcherax@merriam-webster.com,TRUE,Eli Foster,891 Hermina Way,San Francisco,03-02-18,01-06-25
7aa07a03-6dc7-4465-8c71-866e92944d65,bendrizzi2k,335-880-5948,aendrizzi2k@yahoo.co.jp,TRUE,Ariana Tate,54 Dakota Road,Boston,07-02-18,02-09-25
83ed64ba-5a4f-4ef9-bfbf-7feebe62a1ce,vmccomiskief3,761-848-1327,bmccomiskief3@rediff.com,FALSE,Cameron Bishop,368 Prentice Street,Portland,11-02-18,10-09-25
5bdc9bf2-79a7-4cba-928c-200ed1e11da8,bnisslecz,717-201-0790,jhelstripcz@salon.com,TRUE,Gideon Krause,76763 Onsgard Hill,Madison,16-02-18,19-07-25
29c586e7-a511-4b2b-bec5-22e9fc7cde5d,gfeethamcn,526-504-4753,sswansburycn@uiuc.edu,TRUE,Easton Duke,8 Dayton Crossing,Raleigh,05-03-18,13-09-25
4cca1e0c-8a97-449e-b3b2-3b610f3dae49,rgartsydeit,659-695-0346,fgartsydeit@nifty.com,FALSE,James Baldwin,,Washington DC,06-03-18,04-01-25
42640774-d5b9-4505-9cfa-2de188ca0714,btamlett5p,423-923-6408,whaggie5p@princeton.edu,TRUE,Cash French,7 Crescent Oaks Pass,Burlington,10-03-18,23-02-25
1a782d0a-a38d-4a66-baed-11596b3a28ca,kariss1x,472-750-4304,dariss1x@mapy.cz,TRUE,Lucy Brady,01 Valley Edge Road,Washington DC,11-03-18,12-09-25
c8b88348-5d28-49db-b3b4-d85506ae0aa4,lsloperdd,583-895-3532,hsloperdd@army.mil,FALSE,Eli Rivera,0867 Orin Place,New York,21-03-18,17-08-25
c9a3714c-0e5e-45a4-ac00-9b3c813ba0fc,tstrike4u,863-445-8567,kstrike4u@liveinternet.ru,FALSE,Dominic Goodwin,644 Kenwood Street,Seattle,24-03-18,05-07-25
7bb82d99-9c57-4762-bfd3-a0af9ae151f8,eyeude7n,412-342-6267,jyeude7n@example.com,TRUE,Jasper Cross,43 Bellgrove Street,Washington DC,27-03-18,03-05-25
677aa4c2-42da-43f4-baea-068a6ff57f59,bwevellfw,133-910-5305,yspightfw@plala.or.jp,TRUE,Carter Ford,2 Old Shore Drive,Seattle,27-03-18,06-09-25
cdd4001c-e035-42d3-ac90-ab67f256d714,hbarkawaycf,301-406-8872,ncristofericf@furl.net,TRUE,Dominic Thornton,2 Loftsgordon Park,Washington DC,29-03-18,03-03-25
e7fb618f-c30d-47ef-a794-3142ac25d478,hcornewall8y,911-119-7833,ncornewall8y@technorati.com,TRUE,Josiah Stone,7 Toban Lane,Austin,31-03-18,11-08-25
d7336cfe-6b5b-470c-8f76-e232fa069a80,gribbensbg,,cribbensbg@behance.net,TRUE,Isaac Hoffman,92 6th Circle,Austin,01-04-18,01-05-25
4a1e6c7e-698b-4690-85eb-3cb2bd5f1b8e,lsouthward3o,408-242-9206,lsouthward3o@chron.com,TRUE,Benjamin Powell,92 High Crossing Center,San Francisco,03-04-18,30-08-25
62f7dd18-7cdc-44bb-82d0-929726e19741,gcrockfordfn,425-753-8195,gcrockfordfn@digg.com,TRUE,Everett Ward,89 Atwood Court,San Francisco,04-04-18,06-11-25
4683bde9-f39f-4c4e-8635-c4ded829c5f0,ghaibel3z,829-491-5796,jhaibel3z@unblog.fr,TRUE,Ethan Wallace,21450 Brickson Park Street,Seattle,06-04-18,02-11-25
447d5e84-897e-412f-9a58-ea2d63827b8f,bvittetal,275-571-4348,avittetal@behance.net,TRUE,Logan Salazar,8031 Orin Alley,Ann Arbor,08-04-18,11-09-25
a4592aa8-84be-4713-8c6a-d6946fe5dcf4,rasty4w,964-404-5352,kasty4w@boston.com,TRUE,Cooper Brewer,7369 Rigney Park,Boston,13-04-18,10-09-25
c04ace97-a4ad-490b-bd04-4e762184153d,astledgerc,901-913-5033,sstledgerc@feedburner.com,TRUE,Amelia Rivera,7 Farmco Crossing,San Francisco,18-04-18,17-05-25
eba7c40c-f4a3-4b69-b829-373ae1400fd4,ngrutchfield7o,870-769-9836,sgrutchfield7o@shareasale.com,FALSE,Leon Lynch,7 Monument Street,Washington DC,05-05-18,12-11-25
5a3b4bb7-0584-431c-9541-ec36025d304b,jgudemane1,684-747-0351,mgudemane1@nationalgeographic.com,FALSE,Caleb Burke,,San Jose,05-05-18,03-08-25
26d648fc-373d-458a-862a-cb5719fe6d94,hsedwickhm,561-926-7936,jsedwickhm@yale.edu,TRUE,Dominic McGee,96417 School Avenue,Philadelphia,05-05-18,26-07-25
37201e7c-f8e9-4002-a163-6d13cf42473a,ccadwaladr60,394-146-6450,acadwaladr60@theguardian.com,TRUE,Sawyer Carter,128 Maple Wood Terrace,San Francisco,07-06-18,16-05-25
e06ea289-7bdd-45b2-b090-860c0224285a,ahardwidge9s,775-120-9177,khardwidge9s@reverbnation.com,TRUE,Lucas Allen,4749 Swallow Park,Boston,09-06-18,30-09-25
ff85800f-bdfe-40b6-9d0c-95c039a1df18,jgummoehg,190-858-2241,lclacsonhg@jimdo.com,TRUE,Maverick Duke,802 Fulton Park,Raleigh,21-06-18,06-09-25
c3acd7a5-6cd7-443d-b5b2-39942b2e63ff,dkroutf,937-385-7647,sbendanf@cbsnews.com,TRUE,Abigail Kelly,78 Logan Junction,San Francisco,24-06-18,15-06-25
312029bd-afcf-46bf-a99c-87e77458fbd1,edaughertygy,307-479-8191,gskoategy@homestead.com,FALSE,Isaac Norman,9 Hoard Lane,Boston,26-06-18,09-07-25
813eb7b9-88a7-4319-b656-34876783f03b,jspibycg,116-921-1041,dspibycg@scientificamerican.com,FALSE,Ezra Cross,3404 Nobel Court,Washington DC,27-06-18,30-09-25
8eccdd83-284a-49d3-9dd4-19950c04b7eb,dgownge1n,645-757-6695,sgownge1n@phoca.cz,TRUE,Sarah Mills,38726 Prairie Rose Drive,Boston,07-07-18,01-02-25
a8bd84fe-9cd4-4f2f-8d2f-3284f9dc216d,drideoutgt,224-193-9013,crideoutgt@etsy.com,FALSE,Hunter Pope,5048 Main Alley,Seattle,11-07-18,28-04-25
728e1636-16bc-448f-9668-eb405294bb6e,bstear6a,148-101-1340,fstear6a@mail.ru,TRUE,Grayson Ford,4 Loftsgordon Court,Seattle,22-07-18,17-02-25
bb771b2d-4d59-421a-80c8-744c3168786b,cpeachman8q,261-670-7463,rpeachman8q@dot.gov,FALSE,Ethan Graham,38 International Court,Seattle,22-07-18,16-03-25
6e6e7d70-3ae7-4800-8d32-00a744fc0c48,jjoffe4m,,gjoffe4m@nytimes.com,TRUE,Nathan Griffin,56 Scoville Plaza,New York,24-07-18,01-10-25
487a56f2-9c16-4db2-a526-5c9802b59a28,gantoshinh5,441-919-3983,rantoshinh5@lulu.com,FALSE,Daniel Curtis,36 Summer Ridge Drive,Austin,27-07-18,17-02-25
5d670a78-1344-4342-8164-65a1eb51ea27,mhazlegrovegk,389-846-5854,thazlegrovegk@intel.com,TRUE,Matthew Warner,2 Arrowood Crossing,San Francisco,28-07-18,02-05-25
de81d203-b9c9-4be8-9f86-3f4db699a1bf,lgordenhs,337-392-4321,dgordenhs@about.com,TRUE,Ethan Krause,0 New Castle Circle,Madison,28-07-18,29-06-25
80660dfa-3367-4884-be79-a3ac426ee0bf,tkildea1s,146-635-2283,mkildea1s@123-reg.co.uk,FALSE,Naomi Barrett,0 Nelson Street,Austin,08-08-18,08-04-25
e121bab1-9639-48c5-b014-c8b7657b59c2,acoffeyif,701-366-9919,ncoffeyif@youku.com,TRUE,Sebastian Porter,66119 Hallows Terrace,Boston,08-08-18,14-02-25
106f6e92-7e3b-4388-8d10-2015b6d5f8c4,ngumbhd,,mgumbhd@unesco.org,TRUE,Nathan Phelps,97429 Banding Center,San Jose,14-08-18,17-07-25
cb8214e1-c587-4e23-b8cb-a2b501e30299,kdoolan9,,jgoodrich9@fema.gov,TRUE,Lucas Bennett,363 Jenifer Plaza,Minneapolis,31-08-18,15-07-25
c403d504-a1ee-4e86-b28d-26ee358a459f,cwix3d,427-573-1750,gbourton3d@elegantthemes.com,TRUE,Ember Krause,02251 Dovetail Crossing,Madison,10-09-18,11-07-25
101f5acb-ec1b-4ef4-842a-38b891d56a84,rashdown8t,,lashdown8t@friendfeed.com,TRUE,Gabriel Porter,1 Karstens Drive,Boston,13-09-18,19-02-25
1a524dd2-f85a-4565-a6d9-1ea546fa7f63,phumpherstoncm,200-195-4606,phumpherstoncm@geocities.com,TRUE,Evan Whitaker,29797 Golf Course Place,Minneapolis,13-09-18,07-03-25
5b179e8e-a479-4870-880a-0bc670b7bb03,gpeckitt8f,963-223-8896,epeckitt8f@java.com,FALSE,Blake Ward,029 Northport Junction,San Francisco,16-09-18,25-04-25
0ebb889c-dcfa-4dc9-9ac4-de2879d4a61b,goldridgeev,431-344-6338,eoldridgeev@4shared.com,TRUE,Matthew Lynch,93 Sunbrook Crossing,Washington DC,19-09-18,01-04-25
c6f2cc06-1729-4d1a-b451-e586a6c837e4,amasser24,,amasser24@spotify.com,TRUE,Mariah Erickson,15733 Sloan Terrace,San Francisco,25-09-18,27-03-25
4b0cd5fd-f148-45ad-9051-779c0f91323d,bhaddlestond9,,gfruind9@howstuffworks.com,FALSE,Roman Brooks,24 Emmet Center,San Francisco,06-10-18,01-11-25
40ba523d-1576-46b9-bdf1-92105d350f13,dmaccoughen5a,538-604-2201,emaccoughen5a@epa.gov,TRUE,Austin Holloway,66456 Beilfuss Junction,Washington DC,19-10-18,10-10-25
c3fb756d-8ea6-4718-a3df-16e17572eff1,ndyterhn,999-502-2851,odyterhn@forbes.com,TRUE,Eli Vaughn,996 Fordem Crossing,Atlanta,22-10-18,02-11-25
d3d35e0b-035e-48ca-ae87-9cc9b596748f,kmccarl8o,539-448-7378,amccarl8o@noaa.gov,FALSE,Owen Ford,8 Division Park,Seattle,01-11-18,12-07-25
1627ea6d-b01d-44f7-bdd3-35e76a03431f,ablampy6f,665-755-9561,lblampy6f@symantec.com,TRUE,Jonathan Porter,83729 Manufacturers Court,Boston,07-11-18,22-09-25
1e96166b-72ce-4c1c-9fb6-40d6401f4144,tevins85,757-721-6296,vevins85@zdnet.com,FALSE,Ezequiel Estes,5808 Granby Road,Bend,13-11-18,14-11-25
11ce6126-9b47-40a8-81a9-a9fd49caf3f7,mhebden4x,202-514-0798,uhebden4x@census.gov,TRUE,Miles Norman,,Boston,17-11-18,15-08-25
8a2a89c0-5339-4ee1-9e7e-e21af1c4b8c6,lhobbert7f,680-757-1141,bhobbert7f@xinhuanet.com,TRUE,Jace Chambers,269 Rigney Way,Boston,18-11-18,28-11-24
208e4338-84e1-4065-9a08-bbae1165ba08,wfriedmanfi,479-364-4889,bbottbyfi@pagesperso-orange.fr,TRUE,Liam Kraus,9 Oriole Avenue,Santa Fe,19-11-18,03-12-24
92b7ec85-a7d1-4b85-94a2-6e7e597c1977,bmctague3i,670-197-8155,emathelin3i@unicef.org,TRUE,Lillie Kraus,537 Esker Parkway,Santa Fe,20-11-18,25-03-25
b9249d27-69d5-4dba-893d-bc6bfeef5fef,bsamteriv,121-812-7751,tsamteriv@walmart.com,TRUE,Daniel Brady,1574 Warrior Junction,San Jose,25-11-18,09-03-25
21b09d35-a48e-47f7-91ef-db8952861c98,tmayzes27,847-676-0045,mmayzes27@wisc.edu,FALSE,Eliza Madden,107 Colorado Way,San Francisco,27-11-18,19-04-25
b01afa48-40e5-4fc1-b1b4-4d013ad0de04,wodohertyfe,785-711-6254,wgottsfe@squarespace.com,TRUE,Logan Salazar,,Ann Arbor,27-11-18,28-12-24
e41428f4-e86e-46b6-b55d-db53e4628819,aelmhirst5r,,iedwicke5r@smh.com.au,TRUE,Archer Krause,,Madison,28-11-18,09-08-25
c61873c8-b432-4c18-afeb-9f3f0c5e2a43,bcockarillfm,885-991-1870,ncockarillfm@europa.eu,TRUE,Harrison Carter,3576 Moulton Alley,San Francisco,04-12-18,01-01-25
4f26e029-39dc-4563-a30c-b74af3802b7a,kdefewd2,349-734-6513,rdefewd2@uol.com.br,TRUE,Vincent Sanford,43629 Becker Park,Des Moines,13-12-18,19-09-25
4634780b-d45c-4932-b3cc-b9f453bbc1b1,dmacskeaganeo,639-147-0359,tmacskeaganeo@over-blog.com,TRUE,Gabriel Barker,339 Talmadge Hill,Austin,19-12-18,30-07-25
2371db3e-fea0-4239-b5f5-a25c4d8335b6,moliveti8i,834-184-5530,doliveti8i@disqus.com,FALSE,Roman Foster,91 Hooker Terrace,San Francisco,22-12-18,07-03-25
837259de-20e0-4a21-8ba7-1ba275cde4c6,fhedditchjf,999-738-1438,bhedditchjf@hhs.gov,TRUE,Benjamin Chambers,34278 Vera Terrace,Boston,01-01-19,16-07-25
0c996732-d923-441d-a463-eae22e6ef3d2,jsalvatore7j,302-722-4831,csalvatore7j@typepad.com,FALSE,Miguel Curtis,53008 Melvin Terrace,Austin,02-01-19,10-10-25
1a755bdf-080f-4e4d-80de-add5ccaa872e,chellikesio,646-197-4218,hhellikesio@reverbnation.com,FALSE,Oliver Riley,2698 High Crossing Crossing,Austin,05-01-19,03-07-25
46bc6215-8fb0-40e2-b0c1-e2e3d8c7bcc2,lpalliser1f,905-623-3913,bpalliser1f@livejournal.com,FALSE,Ruby Sullivan,0 Talisman Avenue,New York,10-01-19,17-07-25
6519c36b-6c78-495b-ae82-ca17a0b293a2,eoharney1u,446-529-7769,boharney1u@example.com,FALSE,Kennedy Jacobs,16 Lyons Pass,Austin,11-01-19,26-09-25
50157852-23dc-4df8-bf94-0959ab9f801a,cbrimming8z,,msilverthorne8z@pinterest.com,TRUE,Nathan Mills,482 Superior Street,Austin,20-01-19,27-05-25
44714ee4-d5aa-46f2-91c2-35bd336cbd55,dfrancombeip,,cfrancombeip@dailymotion.com,FALSE,Jacob Stevens,446 Dixon Junction,Washington DC,20-01-19,13-02-25
ed8f1263-2cd8-4b53-9be4-7f72481c93fb,hheddy8a,504-434-0085,mheddy8a@blogger.com,FALSE,Tristan Barlow,320 Prairie Rose Way,Boise,24-01-19,24-08-25
c40dc948-e711-434e-8e72-91d14bbd00b8,mhedgecocka1,,bhedgecocka1@symantec.com,TRUE,Benjamin Cross,6260 Thompson Place,Washington DC,26-01-19,21-12-24
eba4a5ed-14f5-4c84-8e02-7ca06c74c295,fdines9g,224-727-9571,jdines9g@multiply.com,TRUE,Sebastian Erickson,70367 Holy Cross Place,New York,01-02-19,21-04-25
3a529096-8752-476c-83a9-881fc3d46998,fgotmannd1,,mgotmannd1@ifeng.com,TRUE,Diego Yates,19 Merchant Crossing,Charleston,19-02-19,05-07-25
0c4b8f5e-fce8-4349-928d-b226e424b307,wlopez6d,762-943-7624,llopez6d@berkeley.edu,TRUE,Nolan Sullivan,8947 Nelson Court,Seattle,21-02-19,31-08-25
657a4f94-a105-4dd0-a6d2-5d4286662f9a,mprawle52,609-354-8796,eprawle52@ehow.com,FALSE,Easton Barker,1 Lakewood Gardens Parkway,Austin,24-02-19,04-11-25
e76111ad-d44e-4322-aaee-a156a9412189,pbroadway5x,700-986-5469,mbroadway5x@i2i.jp,TRUE,Jayce McKnight,5 Banding Plaza,Richmond,06-03-19,10-08-25
7613f31e-a295-43f2-8006-d9fea4b2c96a,ckieran1h,763-810-3513,pkieran1h@mac.com,TRUE,Gabriella Porter,9122 Green Ridge Alley,Seattle,09-03-19,08-08-25
e8ba019e-c368-4e3d-bd82-2d49618c44d2,adifriscoht,915-350-2831,hforgieht@stanford.edu,TRUE,Caleb Salazar,1225 Larry Alley,Ann Arbor,10-03-19,06-05-25
2c0e6c31-7eea-4e8e-bd4d-2a7aad237278,enisetd0,521-254-4115,cnisetd0@chicagotribune.com,TRUE,Micah Salazar,,Ann Arbor,02-04-19,16-10-25
df1fcdfa-09a6-4119-aef6-2d4257d64ac2,tzoren9h,657-863-4143,szoren9h@google.co.uk,TRUE,Adam Briggs,9 Redwing Court,New York,08-04-19,23-12-24
962751f2-3553-4c5b-aa7f-19d2ebaeb9f1,jfleyhw,343-257-7621,jfleyhw@cargocollective.com,TRUE,Logan Barlow,42510 Mccormick Parkway,Boise,11-04-19,19-09-25
ebf9777f-bb99-4d08-9656-cfe8e45d56e4,vpeelg8,867-171-3263,mpeelg8@canalblog.com,FALSE,Nathan Lane,,Austin,18-04-19,03-11-25
374ddda2-de2d-4999-992e-193df3120084,lmccorkindaleix,151-780-7796,lmccorkindaleix@hostgator.com,FALSE,Joseph Horton,60 Sugar Road,San Francisco,19-04-19,22-04-25
852c223e-f560-4f45-a203-5390a36fbc75,dnealydl,955-177-8674,ynealydl@yale.edu,FALSE,Miles Wallace,834 Esch Way,Seattle,25-04-19,11-01-25
71d54d96-58f4-41e4-9b37-bb9560556c2d,vhakonssona9,615-308-8275,jhakonssona9@booking.com,FALSE,Christopher Monroe,73 Raven Court,Charlotte,30-04-19,20-11-25
2d48cd9b-39c5-4fb5-80e5-9630fd47a6da,mmcgranegv,583-135-1919,cmcgranegv@ifeng.com,TRUE,Leo Goodwin,6194 Sage Way,Seattle,30-04-19,23-01-25
a34eb7c7-fb0f-4dd6-8de7-8733523f6163,mhugle2v,592-662-7177,nhugle2v@soundcloud.com,TRUE,June Whitaker,2 Corry Junction,Washington DC,02-05-19,12-01-25
4b439980-6bc8-49a6-acf9-0365863d2b28,bkeuntjegg,140-154-4632,hscholcroftgg@cmu.edu,TRUE,Logan Burke,8165 Basil Drive,San Jose,05-05-19,14-09-25
13fa6288-fa31-4a02-8869-68352b15701e,agelemann,,cgelemann@hubpages.com,TRUE,Victoria Flores,29 Bluejay Court,Seattle,14-05-19,26-04-25
812334d5-e55e-440a-94da-527bbb578e01,gwyllcocks7b,159-290-9008,kwyllcocks7b@php.net,FALSE,Brody Brewer,2835 Clyde Gallagher Parkway,Boston,16-05-19,26-06-25
30fc03ba-746e-478f-a907-6754b9aac6ff,gtoleman5j,624-507-3824,rtoleman5j@51.la,TRUE,Maxwell Caldwell,472 Sutherland Hill,Salt Lake City,23-05-19,17-08-25
ff338fbf-f9c8-467c-bb79-f70458dcd81d,nworboys6i,468-379-0326,gworboys6i@disqus.com,TRUE,Brayden Coleman,889 Goodland Way,Boston,24-05-19,13-05-25
c3de8aee-2615-4e92-a247-d32f318ff378,cswanger35,764-338-6226,aswanger35@deliciousdays.com,TRUE,Amira Carr,908 Garrison Way,Salt Lake City,12-06-19,11-12-24
eb3120c2-72da-449c-853b-00775e03ff3e,bchristol9o,357-490-8591,schristol9o@arstechnica.com,TRUE,Aaron Parks,90 Summer Ridge Plaza,Seattle,13-06-19,18-12-24
df845ffa-b0c5-48a7-8bbd-32e183025630,cgremane21,171-276-3721,sitzkovsky21@usda.gov,TRUE,Aubrey Burns,7 Merry Place,San Jose,16-06-19,18-01-25
5f49d8cc-ca53-4f9f-bab6-2535685141b1,igilhoolieet,170-699-3724,hgilhoolieet@bbc.co.uk,FALSE,Henry Thornton,1228 Derek Way,Washington DC,20-06-19,29-07-25
c18095a6-9b3d-431a-849c-33915bd46df9,bpowdrell9k,112-996-3787,kfrandsen9k@unicef.org,TRUE,Hunter McCarthy,63 Forest Run Junction,Seattle,24-06-19,18-10-25
9eb22f71-12a3-48ae-b7bb-246cb4feb6fb,vdegoix39,500-882-8454,cdegoix39@google.com.au,TRUE,Winter Vargas,77129 Colorado Junction,Dallas,27-06-19,30-12-24
fee5df0b-28ee-4fcc-937d-6b60e7634289,mpogosianhv,139-941-6624,kpogosianhv@cnbc.com,TRUE,Mason Sanford,67048 Meadow Ridge Alley,Des Moines,27-06-19,03-03-25
3be4e32b-ced3-413c-9957-467f3e56bac7,jrozierad,939-718-9109,arozierad@newyorker.com,TRUE,Charles Donaldson,90 Fieldstone Park,San Diego,29-06-19,03-11-25
f15a98a9-e809-4f79-8ea1-9ce9798fb951,rreekendg,984-895-3612,wreekendg@columbia.edu,TRUE,Nathan Fisher,9684 Kinsman Point,New York,30-06-19,07-05-25
5aa577f0-927d-499e-8f02-86b36d73d471,mplaschke5t,488-449-9297,aplaschke5t@merriam-webster.com,TRUE,Beckett Yates,08241 Nancy Drive,Charleston,22-07-19,18-08-25
27685539-5525-4a14-ab79-5dfd1e918233,rmatejag7,281-181-8762,nmatejag7@unicef.org,TRUE,Ethan Mills,7966 Commercial Pass,Austin,23-07-19,28-05-25
3a6875aa-d6d2-49aa-b8e4-ccbd223819cc,ebarthram8l,613-827-0725,cvaney8l@archive.org,TRUE,Kayden Hayes,723 Mendota Lane,New York,29-07-19,08-12-24
7c1f635a-cba1-4cd3-805f-054e56019830,fmathy5d,828-567-4923,lmathy5d@earthlink.net,TRUE,Bentley Moyer,78 Messerschmidt Street,Denver,06-08-19,04-06-25
2c3e217a-fdbd-4f4b-b270-779ba79705df,vgossipine0,834-518-1160,tgossipine0@ed.gov,FALSE,Nathan Baldwin,1300 Algoma Road,Washington DC,10-08-19,02-01-25
10496f76-dc34-4850-b920-4a7f78109e33,tkeoghane9j,,gkeoghane9j@alibaba.com,TRUE,Grayson Madden,581 Hudson Place,New York,16-08-19,22-06-25
f5fbffb8-52bf-4fb6-aa84-afbcfafffb0f,elarkbyaz,802-300-7653,mlarkbyaz@tripadvisor.com,TRUE,James Rivera,67 Dennis Park,New York,24-08-19,09-12-24
a8258044-f301-422c-8afb-c441f6e2873e,gcorstancs,799-936-6093,ocorstancs@biblegateway.com,TRUE,Mateo Donaldson,84 Sundown Way,San Diego,03-09-19,16-11-25
b256bc9d-f685-4b8b-8729-ed081f8f8edb,mbann4d,,ebann4d@reuters.com,TRUE,Joseph Jacobs,957 Hudson Road,Washington DC,05-09-19,01-04-25
86ba2b96-3c21-4643-8ffb-a4de80a9a9ff,cseary2i,893-474-4344,nseary2i@i2i.jp,TRUE,Natalia Lyons,01102 Vidon Terrace,Boston,11-09-19,23-08-25
ebf178e1-7bed-4632-b0d7-cf0396c8ae44,wsmithamel,323-480-8461,csmithamel@shareasale.com,TRUE,Luke Allen,93 Redwing Trail,Boston,12-09-19,25-11-25
825db528-fec6-4acd-8413-263510275188,pmarusyak79,795-617-4440,omacanelley79@desdev.cn,TRUE,Emmanuel Goodwin,017 Brown Center,Seattle,15-09-19,04-08-25
75d0eceb-8b7e-4284-8cca-f2feda460036,wcastledinegz,162-140-5394,mcastledinegz@devhub.com,FALSE,Matthew Webb,93562 Ridge Oak Plaza,Boston,20-09-19,24-11-25
1a2edfc9-bc0e-4972-9e69-b1d727f5ac11,mgerhts6x,969-239-7689,ggerhts6x@w3.org,TRUE,Maximus Horton,87 Union Place,San Francisco,26-09-19,21-10-25
e35ec7b2-ef2b-4f30-bfbd-5466320eed5f,cmcilmoriea2,633-233-1753,rmcilmoriea2@theglobeandmail.com,TRUE,Samuel Lynch,8883 Shelley Circle,Washington DC,26-09-19,12-03-25
42a2b3ae-de22-4b7c-927a-a08a83c3e8da,aschelleg,980-994-6510,lbrookesbieg@hatena.ne.jp,TRUE,Emily Ward,37964 Anzinger Street,New York,27-09-19,23-01-25
6848e783-4065-4949-a847-732f1612cb5b,borigan2y,476-489-6483,aorigan2y@usnews.com,TRUE,Jordan Bishop,13 5th Terrace,San Jose,06-10-19,25-10-25
2fcad589-45e3-4549-af3e-723fdd072fb8,rbrockman7r,582-766-9084,jbrockman7r@vimeo.com,FALSE,Carlos Phelps,32 Dottie Place,San Jose,09-10-19,25-11-25
f50da394-34a6-4576-9c31-a903a27ab192,afidelld,899-457-4676,kfidelld@bloglines.com,TRUE,Harper Price,8820 Delaware Plaza,San Francisco,16-10-19,19-01-25
77ae633a-e7ec-4d56-9908-3161afb68528,jlucock33,415-504-3832,klucock33@mysql.com,TRUE,Emersyn Vaughn,716 Scott Drive,Portland,21-10-19,11-06-25
5a535166-1e5a-4f28-ba58-c4104a7f0dcc,gphilippart4l,813-911-1998,mphilippart4l@naver.com,FALSE,Caleb Townsend,6 Waubesa Way,San Francisco,22-10-19,10-05-25
931e33e7-57a6-4469-a520-710a4fe6aecb,okeppe97,165-326-5306,ckeppe97@youtube.com,TRUE,Connor Baldwin,13 Hermina Alley,Washington DC,26-10-19,08-09-25
4efeec79-c06c-4fd5-a7f1-d00bfc20440b,vbutterworthcr,831-461-2096,dbutterworthcr@bing.com,TRUE,Jonah Caldwell,1 Porter Circle,Salt Lake City,03-11-19,16-02-25
e46601e8-aa37-4618-a9bc-ad63d093820c,ajentzschb9,843-741-4055,cjentzschb9@wunderground.com,TRUE,Joseph Peters,,Boston,04-11-19,07-04-25
0ea8bfc9-e972-4e47-a5f0-820e19b6c836,mseabridgear,355-686-1683,aseabridgear@1688.com,FALSE,Gabriel Henson,81 Express Avenue,Spokane,07-11-19,31-03-25
8a346a07-4efa-4093-904d-2df166d67f2c,sdwane1a,545-122-1320,gdwane1a@hubpages.com,FALSE,Audrey Hayes,7003 Esker Crossing,Las Vegas,08-11-19,25-09-25
3307e844-d472-405c-aa92-d568dea7c38c,rkiellorgs,653-695-8709,tkiellorgs@gnu.org,TRUE,Ryan McCarthy,173 Twin Pines Hill,Seattle,10-11-19,11-04-25
24640c86-dda1-437f-872e-93539d60e4bb,mgarmansh0,709-760-2886,jgarmansh0@nyu.edu,FALSE,William Allen,32 Maple Wood Crossing,Boston,13-11-19,03-11-25
ac4529fc-30e6-47f0-895a-3a078fb4a379,crosenschein42,742-711-1819,srosenschein42@scribd.com,TRUE,William Perry,01835 Scofield Street,Boston,20-11-19,21-02-25
2653e46d-5823-4fda-bc81-a6491608eb0b,hsloeyfl,165-561-0012,nsloeyfl@domainmarket.com,TRUE,Lucas Krause,3 Hollow Ridge Junction,Madison,27-11-19,24-06-25
6301fe98-fe08-4e81-b3c8-7a3c922607cc,lcobbledickan,666-232-0161,fcobbledickan@barnesandnoble.com,TRUE,Eli Sanford,622 Beilfuss Circle,Des Moines,30-11-19,28-08-25
ccfea2c4-9ec2-42e8-b7cb-627d3bf8e5ab,bferrieroi61,130-992-0826,kferrieroi61@mayoclinic.com,TRUE,Eli Ward,91160 La Follette Pass,San Francisco,04-12-19,29-07-25
370110de-862c-41d7-b572-e2b4a382cea1,ggoulddo,904-255-3127,dgoulddo@wikipedia.org,FALSE,Alexander Perry,321 Corscot Circle,Boston,04-12-19,01-10-25
72cec54c-1a05-4b02-a3e6-ab59c00ab257,abamb1b,543-838-8885,dbamb1b@microsoft.com,TRUE,Skylar Myers,174 Eagan Center,Las Vegas,06-12-19,13-02-25
61bbd73b-e1d3-4b20-ac71-4972074a8f4c,ajenne2h,810-933-8859,mjenne2h@quantcast.com,TRUE,Sophie Chambers,0437 Muir Avenue,Seattle,08-12-19,22-11-25
52bf2a97-dacc-4811-a343-30819f7baf98,vdymottdt,991-472-9141,vdymottdt@oaic.gov.au,TRUE,Joseph Lane,78270 Kinsman Way,Austin,16-12-19,16-09-25
0ad9e5a1-913a-46f8-8c4b-78300dfe9552,mgirauld8d,711-371-9859,wgirauld8d@samsung.com,FALSE,Kairo Henson,1351 Service Park,Spokane,18-12-19,21-09-25
ddffea80-7148-4a61-9434-4a7d0ca171e7,ldooheyha,213-303-6033,fdooheyha@skype.com,TRUE,Lucas Lynch,578 Continental Trail,Washington DC,22-12-19,17-08-25
3d9a759e-072a-4124-ba87-a35b8e8b5de0,jvolettefz,421-148-2507,avolettefz@prweb.com,TRUE,Isaac Sullivan,77 Hudson Road,Seattle,26-12-19,19-10-25
4b0f15dd-5605-4848-8e21-b20b63bf68b4,dnossent3t,350-722-4613,gnossent3t@diigo.com,TRUE,Jackson Barnes,2 Rieder Center,New York,04-01-20,23-06-25
0868585d-acf5-4193-a3fe-54f90c37d363,astapells7p,300-745-3651,nstapells7p@diigo.com,FALSE,Theo Holloway,0606 Annamark Place,Washington DC,07-01-20,16-12-24
f0724cf7-d356-4998-a085-d912b5af6185,mpancoastj3,746-612-4130,apancoastj3@harvard.edu,TRUE,Ethan Briggs,4480 Miller Court,New York,10-01-20,06-04-25
30b78219-bc89-4e5b-af6d-c15d7aa5d4c7,lbrastead40,196-642-3582,tmcnellis40@nps.gov,TRUE,Jacob Porter,08 Kennedy Avenue,Boston,16-01-20,24-03-25
3da8b593-3d5b-4f02-8315-11dbec11c50f,bberregw,,yberregw@cbsnews.com,FALSE,Jacob Parks,2 Sugar Crossing,Seattle,21-01-20,22-08-25
6bcb62b6-30ac-4d1c-85a5-9e3c33945aec,gpetrengo,109-982-4964,apetrengo@nasa.gov,TRUE,Lucas Erickson,2377 Bluestem Circle,New York,22-01-20,08-06-25
2d5929d0-052a-4a89-9625-60b4e835c545,sfrost73,439-216-0183,kfrost73@theguardian.com,TRUE,Elliot Briggs,2214 Cascade Circle,New York,23-01-20,21-04-25
3e6e84ae-fb85-4d11-b1a8-685569cfc117,sthompson1i,191-868-4221,lthompson1i@mapy.cz,TRUE,Peyton Peters,42447 Schmedeman Road,Seattle,24-01-20,19-01-25
5b585cde-edc1-48d0-9033-f84f97475667,jsienefv,166-991-4477,csienefv@bloglovin.com,TRUE,Gabriel Fisher,740 Carpenter Street,New York,31-01-20,21-10-25
2831c11c-803f-4bc6-96b5-e2d8c70c90ac,csouthwardhx,410-300-4935,esouthwardhx@w3.org,TRUE,Elijah Kraus,,Santa Fe,02-02-20,21-03-25
decdb06a-756f-44c2-8160-9aa30c5afec8,hvenart68,580-603-7716,svenart68@china.com.cn,TRUE,Ezekiel Barnes,27385 Clemons Terrace,New York,05-02-20,06-06-25
1f1e9b41-2b30-4cda-82fb-b6dc82f32fc3,adaughtreybu,378-459-4130,kdaughtreybu@gnu.org,TRUE,Aiden Griffin,04 Gina Court,New York,14-02-20,25-03-25
082ac72b-b684-4cc4-8974-d241cb1be58c,bbendelowb3,446-594-7600,sbendelowb3@google.es,TRUE,Gabriel Ford,640 Dakota Park,Seattle,20-02-20,07-12-24
0365c26b-bfa9-49df-a956-d64e8e7c1537,krosenstengel4j,144-336-3645,crosenstengel4j@com.com,FALSE,Maverick Warner,0109 Old Gate Hill,San Francisco,01-03-20,26-02-25
5e89948a-2bb7-4033-931a-4ef25e2607e1,kchippingbb,352-429-0434,bchippingbb@stanford.edu,TRUE,Christopher Coleman,,Boston,07-03-20,03-01-25
fe6ab5ae-69e5-4be8-b4cc-489886b38d11,lmarquese6t,683-894-5083,cmarquese6t@hc360.com,TRUE,Vincent Baldwin,98043 Burrows Center,Washington DC,14-03-20,20-07-25
7fbb65da-487a-4dfa-802e-016908de506c,eklaggemanes,848-532-7219,lklaggemanes@jiathis.com,TRUE,David Berry,30263 Sunnyside Alley,Washington DC,18-03-20,06-04-25
c436f741-9c71-4af0-9872-ff14d8f2acd3,acansfield8u,315-137-5003,pcansfield8u@usda.gov,TRUE,Caleb Peters,6 Loomis Center,Boston,31-03-20,06-01-25
789dff20-a881-4bbe-bf06-77d4773f13b7,echeshire3n,813-774-6172,gteers3n@hexun.com,TRUE,James Brooks,6385 Grover Avenue,San Francisco,02-04-20,28-05-25
67e65b2f-e97c-4982-b56e-ddf0634e138f,mlovitt72,521-268-2148,blovitt72@wsj.com,TRUE,Malachi Erickson,0 Browning Place,New York,04-04-20,30-01-25
64bfe521-4019-48fd-83c3-a01f7e3a4c78,klefeaver2z,677-399-6272,ilefeaver2z@state.tx.us,TRUE,Mila Harrington,9485 7th Terrace,Denver,10-04-20,12-12-24
6c6d3ae6-213b-4ac1-87cc-5c5611c6729f,lcannawayez,507-226-8904,fcannawayez@tinypic.com,FALSE,Daniel Moyer,9321 John Wall Trail,Denver,24-04-20,20-02-25
0a36c2ab-57f8-423d-8fe4-1e961ea621c6,dkeiltyj9,,starrantj9@hugedomains.com,TRUE,Owen Goodwin,037 Judy Park,Seattle,02-05-20,20-10-25
92603554-adc9-4f87-a96f-0f6142eab838,kgiacopazzi47,119-871-0498,vgiacopazzi47@patch.com,TRUE,Luke Lane,,Austin,05-05-20,01-02-25
5f7313a7-76c5-4ee3-9c9f-77daab4aeacc,cwintringham8c,113-268-8807,swintringham8c@myspace.com,FALSE,Cruz McKnight,5663 Melby Drive,Richmond,10-05-20,29-09-25
204b5252-0301-4ecb-9b30-a94a969423f0,gdarbenjb,387-908-6096,fdarbenjb@yellowpages.com,TRUE,Henry Brewer,47889 Evergreen Park,Boston,14-05-20,24-05-25
bbad5af0-0af4-4f0f-8af9-905153037dd3,mtoke9r,858-584-4145,ptoke9r@baidu.com,TRUE,Wyatt Webb,25274 Riverside Road,Boston,15-05-20,18-12-24
497e7718-34b2-44e8-b116-daf7937aa84d,efrusher5y,491-295-2995,cfrusher5y@sbwire.com,TRUE,Graham Henson,7715 Macpherson Drive,Spokane,16-05-20,15-12-24
f995c86a-85a4-4f5a-927b-b101564134e6,araper6r,291-175-1178,cdebney6r@fc2.com,TRUE,Jaxon Little,67357 Kingsford Street,Washington DC,17-05-20,26-04-25
86bb6072-f4a3-455f-8008-fb72f58f44ff,cmacvaydq,410-482-4704,emacvaydq@e-recht24.de,TRUE,Daniel Jenkins,6 Sunfield Pass,Boston,22-05-20,09-12-24
c58ef8c9-5c17-4c18-a325-5dd160242fa0,phearleic,295-213-5615,dhearleic@smh.com.au,TRUE,Owen Graham,69 Schurz Court,Seattle,26-05-20,22-08-25
4c92c1d7-621f-4316-a403-03f16f7bea1b,kbloysed,846-630-7652,jbloysed@bigcartel.com,TRUE,Oliver McCarthy,8 Meadow Valley Street,Seattle,29-05-20,05-06-25
c34da337-e5d4-4a14-b560-692fce23f8dd,aenga3j,383-976-2920,aenga3j@delicious.com,TRUE,Brynlee McKnight,67290 Holmberg Place,Richmond,04-06-20,09-01-25
14a01446-0faa-40f6-b74c-c2b1dd1f83c5,ileirmonth8j,550-543-9502,pleirmonth8j@twitpic.com,TRUE,Miles Bryant,3421 Victoria Drive,New York,12-06-20,13-04-25
2e87c10a-989a-4e8d-b0eb-015c71114fff,mgoolden8w,133-955-0462,klayland8w@woothemes.com,TRUE,Sebastian Coleman,92 Leroy Trail,Boston,12-06-20,07-08-25
c0ff3db1-2b4e-4271-9de1-4ed83f8fb8e1,sseabrooke7s,262-835-6374,lseabrooke7s@zimbio.com,FALSE,Cole Moyer,50 Victoria Parkway,Denver,13-06-20,05-04-25
071ab102-6a20-460a-99fc-9bd513e99019,pduncklee8,988-960-4851,msonnenschein8@baidu.com,TRUE,Mason Flores,9 Karstens Alley,Denver,22-06-20,25-11-25
193c78b6-c4c8-4236-a6f8-87baa23c00fa,ewennb0,114-209-1128,gwennb0@discuz.net,TRUE,Alexander Hayes,,New York,22-06-20,30-03-25
cbd9e09d-3f68-4af0-803e-8ef5facb6395,ralyokhineg,858-400-6179,galyokhineg@unicef.org,FALSE,Aiden Goodwin,01 Miller Way,Seattle,03-07-20,19-11-25
8619b32f-b943-47d0-a9db-cea12603b150,pstookedc,324-895-4501,dstookedc@addtoany.com,TRUE,Ezra Bryant,47 Rowland Hill,New York,07-07-20,21-11-25
dfda38f8-3d63-470d-9187-aec7c1fd2781,nearnshawg4,390-333-9207,mearnshawg4@redcross.org,TRUE,Sebastian Coleman,43927 Hovde Junction,Boston,21-07-20,17-02-25
fc2cdb38-49e7-42f7-908a-00d3962bb8d5,ahutsbydb,242-125-1586,ghutsbydb@admin.ch,FALSE,Landon Foster,9 Anthes Alley,San Francisco,23-07-20,24-04-25
61581997-4451-44ab-85e2-81034bb25203,lweberej,768-512-0790,mweberej@wufoo.com,FALSE,Grayson Norman,76762 West Place,Boston,24-07-20,20-11-25
2ba11cca-6b55-48b6-b4ba-ba922f004f55,hswithenbyp,763-801-3856,aswithenbyp@nytimes.com,TRUE,Grace Wood,8 Melby Plaza,Seattle,04-08-20,19-07-25
ef99fbca-71b9-4371-974f-50cd6a45aa6e,dstelljesbe,233-171-1244,pelmarbe@reuters.com,TRUE,Nathan Mills,3802 Schmedeman Center,Austin,04-08-20,26-08-25
f23260df-1111-4bae-98bb-b657ade6fded,cvango4c,167-550-3017,avango4c@omniture.com,TRUE,Matthew Little,24092 Mallard Point,Washington DC,06-08-20,30-10-25
27b8ec51-9d13-4a80-a1e6-750e2cd444e0,pchesswasct,459-608-8675,fchesswasct@tumblr.com,TRUE,Cameron McGee,17 East Pass,Philadelphia,14-08-20,03-12-24
079e49ff-a271-4f42-9e61-f3f723d31848,lcorbally4r,316-661-9804,acorbally4r@nyu.edu,TRUE,Cameron McCarthy,70 Luster Drive,Seattle,19-08-20,13-02-25
80e93638-5cbb-4566-93df-bfac1fa89ab6,breddanb1,349-759-7312,jreddanb1@themeforest.net,TRUE,Benjamin Barnes,3472 High Crossing Alley,New York,21-08-20,03-04-25
a0ca918c-da95-4a38-9494-ab32eb14be1d,eobybd,308-909-8104,mobybd@usatoday.com,TRUE,Ryan Stone,7615 Barnett Crossing,Austin,25-08-20,13-06-25
245e990e-0635-4bce-af91-e568a8d208e4,awhyteman3m,313-350-1861,awhyteman3m@senate.gov,TRUE,Elijah Ward,0 Evergreen Avenue,San Francisco,27-08-20,14-01-25
b163072a-50af-4966-8e49-78b9a8e859c8,fanniwell4n,325-234-8108,lanniwell4n@networksolutions.com,FALSE,Isaiah Erickson,8 Sunbrook Street,New York,29-08-20,13-09-25
83aa8c37-0a6d-4d7d-86af-86ddb4d4aaed,athompson11,307-260-8150,gthompson11@unc.edu,TRUE,Savannah Simmons,25594 Carberry Hill,Washington DC,01-09-20,26-09-25
065942a2-afcf-41e9-9283-c66819e06aad,bmullinger7y,865-564-4975,lmullinger7y@va.gov,TRUE,Dawson Caldwell,,Salt Lake City,07-09-20,27-07-25
79c1e31e-cd32-47e3-b520-41391eba1d79,fblydefu,852-615-2092,hblydefu@weather.com,TRUE,Owen Barnes,029 Roth Plaza,New York,09-09-20,02-10-25
8b03400c-dd0f-4500-aa5f-1ba86fd87900,eelnor22,298-401-1101,kelnor22@issuu.com,FALSE,Gianna Townsend,698 Bluestem Hill,San Jose,21-09-20,16-10-25
557e359d-76ce-4822-aa17-1d14afa6ceb8,tgilluley2l,142-670-4177,pgilluley2l@blogs.com,TRUE,Maya Curtis,78035 Northport Court,Boston,22-09-20,16-09-25
3d9ffbb4-fa92-4afb-ab5d-43ad32dff5a5,jramel4a,153-261-1761,cramel4a@msu.edu,TRUE,David Stevens,032 Quincy Parkway,Washington DC,08-10-20,25-12-24
31de2b1d-6671-4cb8-b642-dea6eac8f25b,ehutchingesc8,303-125-1421,ghutchingesc8@seattletimes.com,FALSE,Miles Chambers,94238 Briar Crest Parkway,Boston,12-10-20,02-10-25
3c015ec1-5854-428d-a005-2a8b54f24d44,hstaplefordje,570-459-1243,sstaplefordje@ucoz.com,FALSE,Nathan Allen,4554 Steensland Road,Boston,16-10-20,24-11-25
42fa1bd8-6f97-4e7b-83a8-ff79d7de4ad4,jforwardf8,995-607-3498,vforwardf8@earthlink.net,TRUE,John Vaughn,95472 Butterfield Point,Atlanta,17-10-20,04-08-25
4cf4dda4-e030-4679-987f-6686ac5807d3,rschutt6u,279-764-1576,mschutt6u@ifeng.com,TRUE,Micah Burke,2 Gale Point,San Jose,27-10-20,23-03-25
e3c93b70-faae-4f8e-90ae-c9a595255806,tbrookbank92,627-142-5868,hbrookbank92@nps.gov,TRUE,Mateo Riley,07147 Lukken Lane,Austin,11-11-20,13-09-25
a155c329-85cd-40b7-8bf0-393f847ed6f2,dhaldoneb,376-853-1860,fhaldoneb@odnoklassniki.ru,TRUE,Ethan Johnston,769 Pleasure Court,New York,11-11-20,19-06-25
ce14e7cc-37b6-4584-81f8-c02e23e5d31d,aclevers,576-708-9271,pclevers@bing.com,TRUE,Layla Long,03635 Superior Drive,Boston,15-11-20,26-12-24
bf796172-5192-4ccd-aeeb-f6ffa7651c8c,ewiltsheriz,350-532-0080,pbigleyiz@slate.com,TRUE,Elijah Burns,476 Derek Terrace,San Francisco,18-11-20,25-03-25
f6821c08-4915-4fae-b21e-f3aa8f399946,kbluschkeb4,304-627-8394,rbluschkeb4@senate.gov,TRUE,Ethan Hamilton,23 Londonderry Avenue,Seattle,19-11-20,14-02-25
661b6f1c-2127-405f-b975-eac24b89767d,csmailedy,725-107-1792,psmailedy@unicef.org,TRUE,Joshua Little,965 Clyde Gallagher Lane,Washington DC,19-12-20,24-01-25
53d8cce4-ba15-4f18-a543-ebf8653e4e2d,rknowltongh,413-536-8624,aknowltongh@skyrock.com,FALSE,Ethan Brady,8 Sage Place,San Jose,21-12-20,20-07-25
1f6d0ff4-252c-454b-a127-b48e35e44139,dhubbard59,849-205-0888,phubbard59@economist.com,TRUE,Brooks Lynch,781 1st Avenue,Washington DC,24-12-20,12-02-25
bc2c4153-3b6a-4852-b852-769832b311fa,bblasli5c,779-638-6423,rblasli5c@marketwatch.com,TRUE,Kai Phelps,7 Debra Parkway,San Jose,02-01-21,20-04-25
8f24b5e7-6a61-46df-8925-f0c946080cb7,mwipfler2s,739-332-9326,cwipfler2s@moonfruit.com,TRUE,Elise Baxter,10402 Kensington Hill,Washington DC,08-01-21,26-10-25
768b15a4-71dd-4538-857c-82e66b709505,bpendridhp,957-849-1710,hpendridhp@etsy.com,TRUE,Jackson Carr,4714 Village Alley,Houston,10-01-21,06-02-25
37c65474-3a76-4d04-9b08-9e4c87de7f8f,bandresserd6,859-509-8984,vandresserd6@va.gov,TRUE,Xavier Henson,771 Maple Wood Avenue,Spokane,13-01-21,28-08-25
95cf0677-73a6-4d22-ba15-7179306a2c93,ssirr9w,380-988-5770,bhackley9w@g.co,TRUE,Ryan Tate,74100 Dovetail Center,Austin,20-01-21,17-09-25
090d7e86-c8d4-47b8-bbdb-34887efc4088,asteven46,409-314-0743,csteven46@dailymail.co.uk,TRUE,Owen Mills,48 Leroy Avenue,Austin,23-01-21,12-09-25
ecb22ef9-a1ab-4706-b100-67c8daa2fdba,odansonu,626-949-0918,edansonu@purevolume.com,TRUE,Zoey Mitchell,46 Sugar Plaza,Boston,05-02-21,16-01-25
f53c9565-0500-4a9c-97c1-bbe20b10f550,rheake7w,233-240-2095,hheake7w@elpais.com,TRUE,Enzo Bishop,83856 Northport Plaza,Portland,14-02-21,03-11-25
73c5a892-2d98-4402-9bb5-b3a63f0e5665,vfishburnc0,256-410-3405,jfishburnc0@indiegogo.com,TRUE,Cameron Pope,5 Independence Crossing,Seattle,23-02-21,04-12-24
baeaa1c0-e364-4118-97a7-e27df7f86066,delbyb5,899-206-7620,belbyb5@so-net.ne.jp,TRUE,Samuel Graham,8 Ridgeway Parkway,Seattle,24-02-21,12-10-25
79a0f558-4c32-4140-81d1-1f5518b3df29,rgaiger6b,134-793-4690,dgaiger6b@themeforest.net,TRUE,Adam Hamilton,,Seattle,25-02-21,07-05-25
5501c7f0-5742-4ba0-a221-742356b822a9,ehalpinee6,930-245-1454,thalpinee6@blogger.com,FALSE,Alexander Burns,2377 6th Place,San Francisco,10-03-21,04-01-25
cf38e9e0-9b01-4b8b-8195-d531adc45c5f,cechalie2p,273-467-8223,aechalie2p@seesaa.net,TRUE,River Cross,0004 Macpherson Place,Austin,14-03-21,04-01-25
d500e6b2-c946-43c1-b899-3da59e0dba6c,eghidolibf,884-785-3300,rghidolibf@ca.gov,TRUE,Luke Lane,9 Claremont Center,Austin,19-03-21,11-04-25
f06ec457-4844-4711-bae4-62f99c818d31,lsaunders2o,695-229-1980,agrunder2o@alexa.com,TRUE,Ivy Thornton,90 Bellgrove Road,Austin,21-03-21,12-05-25
679f0899-9a5d-4f97-a608-ce9bfc77a46a,vgladbachcj,609-614-7880,mgladbachcj@irs.gov,TRUE,Adrian Baxter,8 Truax Lane,San Jose,27-03-21,26-12-24
16180b9b-bfde-4385-813c-2fedd086f7d6,hdyerscc,582-797-8492,edyerscc@mayoclinic.com,TRUE,Carter Curtis,93383 Moland Circle,Austin,31-03-21,08-11-25
064dae9e-2946-4d0c-8a32-34ee9583b020,ddawdary2c,280-434-2815,rshovelin2c@topsy.com,FALSE,Julia Parks,78027 Walton Lane,New York,23-04-21,26-12-24
2e23e9e3-f0fd-409e-a065-eb19fe1df618,wschutt6j,904-883-6220,cschutt6j@google.pl,TRUE,Jeremiah Jenkins,42897 Ridge Oak Alley,Boston,23-04-21,09-08-25
e8fc4a46-a54e-4164-9590-2dde2751ddca,emutlow95,654-853-6833,smutlow95@purevolume.com,TRUE,Aaron Little,7 Schlimgen Point,Washington DC,24-04-21,23-11-25
c22346cf-1eec-4cc1-9cb6-75031338019e,lburcombebx,824-672-2523,oburcombebx@ibm.com,FALSE,Mateo Johnston,99045 Hermina Drive,New York,27-04-21,22-03-25
a717339d-b369-4bf2-8278-c482e301b120,ajills13,469-730-6959,ejills13@php.net,TRUE,Paisley Henderson,246 Bartillon Alley,Washington DC,29-04-21,24-01-25
4ecec278-243a-4c1c-be70-8a1c6f313f7e,ericciardelli3q,797-452-8845,fricciardelli3q@who.int,TRUE,Henry Bryant,3 Golden Leaf Alley,New York,30-04-21,31-05-25
83b61cdf-3483-4381-a6cf-91affc284efb,ecompfortik,824-500-3870,ccompfortik@google.es,FALSE,Liam Stone,16 Lillian Circle,Austin,05-05-21,06-10-25
60c220f6-7615-4131-9182-deea3abd610a,bgoodfellowebs,390-159-8971,cgoodfellowebs@yellowbook.com,TRUE,Joseph Burns,13 Waywood Crossing,San Francisco,12-05-21,25-01-25
ed75ebb9-45cd-41fc-baec-b55f83706926,fantoniewicz5q,830-680-6948,rantoniewicz5q@howstuffworks.com,TRUE,Karter Estes,43874 Texas Street,Bend,21-05-21,14-09-25
313a7564-0348-4122-8e73-c0c975729164,jranscombef0,201-881-3316,yranscombef0@wunderground.com,TRUE,Caleb Whitaker,4325 Eagle Crest Alley,Minneapolis,22-05-21,11-07-25
2953fe94-61ca-497b-a145-7547d9a4925a,isnoxall63,410-542-8894,tsnoxall63@sogou.com,TRUE,Calvin Powell,10347 Knutson Circle,San Francisco,01-06-21,01-11-25
fec7c402-1d28-4a37-ab38-7ea1bdd24df9,jproudlovecy,286-511-1348,dproudlovecy@hc360.com,TRUE,Asher Estes,9413 Little Fleur Road,Bend,02-06-21,26-11-24
78aa56ed-b20d-4828-9dd2-b26c97bb0fd1,lmaestro8x,320-992-8293,amaestro8x@exblog.jp,TRUE,Christian Jenkins,413 Hanson Parkway,Boston,04-06-21,13-09-25
161b5611-f820-4a8c-a21f-e2b4b161a81d,rweinbergf6,297-135-1678,adecourcyf6@cnet.com,FALSE,Joseph Donaldson,5 Summit Circle,San Diego,07-06-21,31-08-25
906040d4-7f8c-4fa7-ae50-ead831d5b014,hprium4,953-881-5833,pprium4@cmu.edu,TRUE,Noah Patel,86670 Pierstorff Terrace,Boston,23-06-21,26-03-25
ad1dc16c-ed82-42c0-992d-de80b1ee9c53,lcalderheadj2,689-740-6482,alavensj2@twitpic.com,TRUE,Isaiah Erickson,8 Killdeer Alley,New York,24-06-21,04-03-25
e5c65e13-3f89-4f82-bf39-a8560e52f115,mmcgrawi0,284-143-8492,gmcgrawi0@washingtonpost.com,TRUE,Julian Carter,21 Golf Course Trail,San Francisco,29-06-21,14-04-25
fc6c7c83-0121-4780-ba83-ff0c0b4517e8,nrevel94,645-963-2819,kfaulconer94@w3.org,TRUE,Jeremiah Barrett,4 Fulton Road,Washington DC,01-07-21,30-07-25
30ad95e1-c96e-4e5e-89a1-3f65b06b348e,bbollen1k,388-423-9717,sbollen1k@fotki.com,TRUE,Bella Coleman,5 5th Plaza,Seattle,07-07-21,20-01-25
5076c4ef-3756-4425-8517-8004bfe391d9,kdightgi,747-922-6350,pdightgi@reference.com,TRUE,Alexander Shelton,50737 Magdeline Street,San Francisco,11-07-21,19-07-25
0ec256f3-38e9-4afd-93b5-b2712674de31,kcallaway9m,776-483-2265,gsatchell9m@europa.eu,TRUE,Leo Shepherd,1015 Kedzie Plaza,Seattle,17-07-21,02-01-25
65c3bd5f-7431-4a03-bb54-11a113000d2a,gkemson51,349-675-3527,rkemson51@deliciousdays.com,TRUE,Greyson Lyons,,Austin,01-08-21,26-01-25
4b3b30d0-8a03-4bd7-8ebd-6df90617f5a5,arother62,808-590-0273,brother62@twitpic.com,TRUE,Jude Brooks,4 Goodland Hill,San Francisco,09-08-21,20-02-25
d43550b5-6899-4b19-a672-2604ea4c7e54,vrushmerei6,515-530-8966,arushmerei6@booking.com,TRUE,Eli Rivera,0697 Harbort Point,New York,09-08-21,19-11-25
033fd6ec-1fa9-48c8-a698-802fe2b7b591,ebleezej0,673-774-9312,jbleezej0@intel.com,TRUE,Alexander Townsend,69710 Independence Drive,San Francisco,14-08-21,19-04-25
b5986977-6896-4cfd-90f6-03eeee1b22a9,eshackesby9q,295-759-3294,mshackesby9q@squarespace.com,TRUE,Ethan Norman,0004 Meadow Ridge Terrace,Boston,16-08-21,26-06-25
feedc2de-1c4e-4248-acca-b32496f80c16,wlenthallq,865-353-9210,glenthallq@canalblog.com,TRUE,Chloe King,5 Johnson Parkway,Boston,22-08-21,10-12-24
8576de26-6bf3-4c39-98f2-3e6dd902b0bc,jdimitrieij,,bdimitrieij@go.com,FALSE,Matthew Jenkins,,Boston,22-08-21,07-09-25
e4c01ebc-94bd-454e-a47b-efd4d2ce9c27,dgenty5e,561-468-5077,mbracher5e@arizona.edu,TRUE,Micah Whitaker,2930 Blue Bill Park Terrace,Minneapolis,28-08-21,12-09-25
79b68721-3e4f-4cc9-a08d-c869a0c52cb3,kbranstony,,cbranstony@xinhuanet.com,TRUE,Hazel Griffin,27559 Pawling Way,Austin,01-09-21,27-03-25
7d62ccbd-61d6-41cf-a579-e3d99de6acf5,bsweetenham3w,356-246-2342,ksweetenham3w@sciencedaily.com,TRUE,Logan Hamilton,,Seattle,06-09-21,21-07-25
fd993cb0-9c13-473e-bb33-4fd028b1d710,rrolfe1w,,jrolfe1w@vkontakte.ru,FALSE,Cora Burke,69780 Village Green Parkway,Washington DC,10-09-21,10-01-25
f9ea818b-60cd-4691-bf76-8314f903f816,tgissophl,674-853-2714,ggissophl@ask.com,TRUE,Levi Donaldson,0 Paget Center,San Diego,10-09-21,01-03-25
d8d3d04d-73f1-409e-b33f-62c24c13f982,jfrobisher12,486-763-2227,gfrobisher12@irs.gov,TRUE,Brooklyn Foster,54099 Killdeer Lane,Washington DC,07-10-21,26-11-24
06ffa6ee-2815-45fe-8c5a-d2956a399311,dshadwick9d,476-425-2909,mtombs9d@craigslist.org,TRUE,Beckett Burns,65 Northland Point,San Francisco,07-10-21,18-04-25
477f991e-1d4f-4dd5-b41a-226d578ce79d,pmiddiff32,572-558-6549,ngrigoire32@vimeo.com,TRUE,Ariella McGee,4 Linden Hill,Charlotte,14-10-21,04-09-25
7d5345ee-d7b5-4e1e-b357-7e38a8daa527,xpactat7k,317-462-2374,cpactat7k@twitter.com,TRUE,Nicolas Armstrong,29307 Boyd Lane,Austin,17-10-21,04-01-25
7d84c60f-7ec1-425c-807c-d8267cdcb18d,calexandredj,465-743-3001,galexandredj@altervista.org,FALSE,Evan Graham,9553 Ridgeview Street,Seattle,22-10-21,30-10-25
b51a3017-b8d8-48ff-ad78-e6c866f5a06d,ngarrod50,779-678-0637,ngarrod50@sfgate.com,FALSE,Jaxson Chambers,715 Spaight Point,Boston,27-10-21,08-02-25
d31f6b1c-73dc-48e9-9b8a-89bf403a00d2,ltrilla8,671-136-3210,ttrilla8@nps.gov,FALSE,Anthony Duke,7894 Roxbury Way,Raleigh,27-10-21,26-05-25
a769ac0b-be9a-45d3-a2d7-4777bf175dbf,jharvett5k,410-993-4170,gharvett5k@wiley.com,TRUE,Weston Donaldson,49 Meadow Vale Parkway,San Diego,30-10-21,10-06-25
ffa1c070-ee77-4c36-ab68-922c59e1b4d2,rcobboldcl,495-192-3635,hcobboldcl@census.gov,TRUE,Aaron Moyer,9628 Mallard Place,Denver,06-11-21,12-03-25
fcf5dce9-aaa1-4a6c-85c5-03b4d7b9fbc3,tclericoatesk,360-961-3763,eclericoatesk@eepurl.com,TRUE,Luna Hughes,2454 Judy Crossing,New York,10-11-21,09-09-25
a40c461d-cce0-42d7-a3c3-549e40f711b0,lizsak37,694-804-8990,kizsak37@harvard.edu,TRUE,Vivienne French,,Philadelphia,15-11-21,26-07-25
88e04b01-ae6d-4334-83f5-f3a599ecc0c0,bsimkad8,751-612-7667,dsimkad8@sogou.com,FALSE,Milo Ward,26008 Towne Circle,San Francisco,16-11-21,28-07-25
3ad7006d-5970-468f-b2c3-9581fa4c80c3,cbyhamdh,361-150-3844,hbyhamdh@unicef.org,FALSE,Hudson Ford,5 Daystar Lane,Seattle,20-11-21,04-03-25
b8d4e508-6a6a-4a82-9f9b-b8d522d5993c,hneate2b,,nneate2b@e-recht24.de,FALSE,Clara Goodwin,96775 Marcy Plaza,New York,25-11-21,02-10-25
7c263cc6-fb56-482a-878c-09dd9360569e,hsindersoniq,848-935-9932,jsindersoniq@ustream.tv,TRUE,Maverick Barrett,80379 Birchwood Drive,Washington DC,25-11-21,27-04-25
328a7425-6d21-42da-a4da-3669dd829b25,menglishby4f,594-294-2102,tenglishby4f@trellian.com,TRUE,Julian Burke,4779 Helena Parkway,San Jose,06-12-21,07-05-25
39b48e17-dc3f-4c27-8df9-2f1e18aac1af,rstrippf5,442-455-9231,tstrippf5@google.cn,TRUE,David Caldwell,37592 Harper Avenue,Salt Lake City,08-12-21,26-09-25
7932d724-48d2-48ac-a56d-4eeaf6014bb2,rbraghini80,862-187-3717,fbraghini80@elegantthemes.com,FALSE,Elliott McGee,6 Old Gate Avenue,Philadelphia,12-12-21,10-02-25
8e352dfa-52cc-4d06-a8d5-355ff9ca4d74,tburfootc5,417-555-7376,lburfootc5@dedecms.com,TRUE,Grayson Norman,3 Pierstorff Street,Boston,12-12-21,13-10-25
df4b4ef3-e51c-4214-80ee-90f3d88fa7d5,ogosforthf9,651-980-4628,fgosforthf9@twitpic.com,FALSE,Matthew Stuart,28108 Saint Paul Junction,Dallas,14-12-21,12-12-24
b6e8cc2e-8220-45d2-b6fb-ba58b395aeaa,evaunhe,152-507-4860,rvaunhe@umn.edu,TRUE,Isaiah Moyer,7983 Miller Street,Denver,15-12-21,01-07-25
d20dfd17-0b63-45e2-93d4-68a2a08ee478,pjerdein6g,298-463-1510,gludlem6g@gmpg.org,TRUE,Aaron Peters,640 2nd Terrace,Boston,16-12-21,13-09-25
4686c4e5-4344-4740-8273-21c710d42a13,gjessopgb,,rjessopgb@amazon.com,TRUE,Jackson Stevens,191 Jay Street,Washington DC,21-12-21,04-09-25
822bb94a-a9dc-46c8-bd1a-ecd7196a21e3,mmillanbj,510-640-9254,nmillanbj@thetimes.co.uk,TRUE,Elijah Barrett,0 Stoughton Hill,Washington DC,28-12-21,20-06-25
20a8454c-5f09-4e08-a83c-52cfdb826c62,sbateripgq,753-508-6325,sbateripgq@elegantthemes.com,FALSE,Caleb Johnston,69532 South Hill,New York,17-01-22,10-06-25
524c93d8-f5ab-4bf3-bf56-b3d57b4c881b,pstrotongr,204-416-7423,dstrotongr@prnewswire.com,TRUE,Nathan Madden,8183 Northport Junction,New York,04-02-22,03-03-25
e29649d3-93cb-477a-abe0-d296f30d39c8,kbraamcv,293-272-1294,abraamcv@amazonaws.com,TRUE,Cole Stuart,8 Fair Oaks Way,Dallas,05-02-22,28-11-24
a3399044-efb8-45bc-8e08-57f1810f8af5,vtroygx,569-285-3408,jtroygx@china.com.cn,FALSE,Gabriel Brewer,94 Tennyson Terrace,Boston,06-02-22,10-11-25
6782c60e-32d6-45fd-ae16-0d1c29697e30,hcordeuxi7,310-732-7706,bcordeuxi7@dmoz.org,TRUE,Oliver Hayes,7399 Debs Lane,New York,08-02-22,08-01-25
24b46c58-0bf6-41fe-ba50-b7585cfddd73,glamb34,968-260-5725,elamb34@ow.ly,TRUE,Adelyn Stuart,85097 Kim Trail,Nashville,10-02-22,25-05-25
65a49548-f77f-4bd7-a544-ff517a5b46ea,fgoodlet3a,569-108-2294,dgoodlet3a@java.com,TRUE,Charlee Rollins,343 Bellgrove Court,Houston,14-02-22,06-05-25
64bcbd4f-1f60-42a9-9d63-db55932ea747,jlegganfy,183-255-3526,blegganfy@google.es,TRUE,Nicholas Graham,1 Corscot Court,Seattle,18-02-22,19-11-25
0d0a628a-a0e3-42e3-a9c7-b5ca21f57318,chalbordg0,136-348-3203,mhalbordg0@bizjournals.com,TRUE,Leo Wallace,2 Marcy Street,Seattle,22-02-22,26-08-25
2533ec8d-b373-45e4-a9be-f1526c882964,myukhoveh,982-414-6712,ryukhoveh@so-net.ne.jp,TRUE,Cameron Parks,89678 Northfield Center,Seattle,24-02-22,22-11-25
adae2e7f-3c67-487d-9731-bc991c92d4e1,fnewittdk,,cnewittdk@deliciousdays.com,FALSE,Isaiah Sullivan,,Seattle,25-02-22,06-09-25
c2affa64-0a9d-4d5b-b94f-42d4fe7e0880,nwilce54,788-609-0540,twilce54@ovh.net,FALSE,Hunter Curtis,6 Division Trail,Austin,01-03-22,14-08-25
a311bb66-8fc1-442f-a0b1-784147f648fe,pwestondv,967-796-1164,mwestondv@nih.gov,FALSE,William Riley,,Austin,07-03-22,06-08-25
e190e338-e0d2-4c8a-ab05-a5b2563dc7a3,mstrotonev,125-236-1383,tstrotonev@cnet.com,TRUE,Nora Sanders,68890 Charing Cross Park,Austin,08-03-22,27-04-25
f2b6ed0c-689d-4bcb-b2ec-06e09fe24c94,bpeer2j,558-752-1376,jpeer2j@mac.com,TRUE,Faith Barker,3 Clove Park,Boston,14-03-22,02-08-25
055448a8-6352-42ec-bb22-bb300c051df7,cwatmorecw,658-593-9766,bwatmorecw@ifeng.com,TRUE,Jason Carr,90612 Butternut Street,Houston,16-03-22,12-04-25
1808d0f2-56df-4b7c-9e4d-57d09105867d,achilcotte5h,496-586-9815,fchilcotte5h@mozilla.org,TRUE,Kingston Bishop,16 Shelley Way,Portland,23-03-22,17-12-24
added80d-b90d-4c55-934f-3933792aa860,cpardewim,606-664-5600,rpardewim@jiathis.com,TRUE,Lucas Lane,53460 Nobel Center,Austin,24-03-22,30-05-25
5de69111-8b85-4c7c-8b37-e9ed2a30cbd0,ywastell84,,mshimony84@github.com,FALSE,Josue French,,Burlington,11-04-22,06-11-25
b5e5425a-c8d2-4c90-9540-9dd8a5bcf149,wwillock7m,507-207-9035,rwillock7m@prweb.com,FALSE,Ivan Thornton,4841 Pawling Street,Washington DC,22-04-22,22-06-25
c83107ce-9568-44c5-a67a-86fb4d45b726,wbramhall7e,802-915-1623,sbramhall7e@buzzfeed.com,TRUE,Zayden Allen,64529 Blaine Way,Boston,25-04-22,30-12-24
e2c2b3d6-951a-4074-939b-039ae60f71d5,hhartiliy,388-313-4827,bhartiliy@desdev.cn,TRUE,Benjamin Warner,3 Waywood Lane,San Francisco,28-04-22,14-12-24
ab27e847-3d8f-4e58-bebe-98aadc3032a9,pizkoviczef,600-259-7220,iblaydef@businessweek.com,FALSE,Elijah Shepherd,5506 Tennessee Drive,Seattle,02-05-22,01-04-25
92fe1b42-96fd-4b95-b2c0-5657964f78b8,avanhoveag,436-673-5713,pvanhoveag@pagesperso-orange.fr,TRUE,Matthew Stuart,16 Nelson Lane,Dallas,20-05-22,27-03-25
38368c7b-b088-4c50-b3fe-777d13e46ce1,dvequaudgl,365-445-7568,bvequaudgl@free.fr,TRUE,Joseph Burns,5 Anzinger Avenue,San Francisco,21-05-22,21-11-25
3e657da6-c29e-41ac-af33-032f874927fb,iflitcroftby,677-170-8132,lflitcroftby@blogspot.com,TRUE,Luke Madden,76064 West Center,New York,23-05-22,21-12-24
5cab340a-6412-4f3e-b052-510fde129ed2,afearnsex,248-242-9359,vfearnsex@blogtalkradio.com,TRUE,Andrew Baxter,9 International Terrace,San Jose,01-06-22,22-09-25
4d9968b2-8a45-412a-b0d4-5ecd169d6348,eelsmore2t,526-312-0475,aelsmore2t@bing.com,TRUE,Margot Phelps,8 Blue Bill Park Road,Washington DC,06-06-22,06-02-25
14c55bac-4984-4b2d-8db1-bdeb88ed7d7d,rkitchingman3u,609-792-5434,ckitchingman3u@example.com,TRUE,Daniel Fisher,207 American Ash Street,New York,18-06-22,12-04-25
5b87ccdb-ce9f-4b52-97a7-24669d0c3c92,jetheringtone,533-252-8002,setheringtone@a8.net,TRUE,Evelyn Brooks,06015 Westport Way,San Francisco,19-07-22,01-07-25
06728ac9-2266-4181-a930-c49e95b7d3e4,mszantho3g,998-481-0497,dszantho3g@bluehost.com,TRUE,Poppy Sanford,,Des Moines,21-07-22,19-02-25
87ed858f-77f8-49dc-bcf3-fca5423ce2da,gcrucef7,647-724-5580,rcrucef7@gov.uk,TRUE,William McGee,04453 Westridge Park,Philadelphia,25-07-22,24-01-25
58371c33-e0d4-4761-bb90-b199410731b9,tdietschej8,171-850-0610,elintotj8@chron.com,TRUE,Liam Shepherd,8 Becker Terrace,Seattle,13-08-22,23-09-25
bdc5147d-8263-4ebb-ba64-580f3a6fcc5d,mwodham3,649-361-5301,gwodham3@dot.gov,TRUE,Olivia Nguyen,1 Jenna Way,Seattle,24-08-22,23-06-25
96962df1-dacd-41e2-9e35-d08c7c173322,dcoldbreath9l,427-698-6879,rcoldbreath9l@ehow.com,TRUE,Jason Pope,51 Bayside Junction,Seattle,30-08-22,30-04-25
aeae5926-5073-4571-a8fc-befa5660b163,dstyan7q,145-932-8768,astyan7q@usgs.gov,TRUE,Bryce Baxter,61438 Golf Course Junction,San Jose,04-09-22,08-06-25
7089bbea-a444-4967-ad5f-7adb4089a68e,dradfordhu,667-936-8192,jradfordhu@pinterest.com,TRUE,Isaac Yates,634 Hanover Court,Charleston,12-09-22,10-08-25
9c6514d3-7ef8-4c97-9283-dd9bb2932452,alequeux8h,559-683-4213,rthoumas8h@moonfruit.com,TRUE,Jasper Powell,848 Mitchell Avenue,San Francisco,13-09-22,28-04-25
4950122e-dae1-45f2-ad74-d4fb06c4a4b3,cnenci16,333-370-0224,rbyk16@networkadvertising.org,TRUE,Natalie Barnes,3 High Crossing Street,San Jose,21-09-22,12-08-25
a678ffb2-85d1-45ff-8776-690281252d89,tdawtreyak,872-396-7906,cdawtreyak@walmart.com,FALSE,Ryan Krause,71251 Lindbergh Trail,Madison,05-10-22,05-01-25
71c5af17-035d-49bc-9d6b-ad2e9f7dd990,ndemendozadi,840-932-1084,gdemendozadi@ezinearticles.com,FALSE,Leo Hamilton,,Seattle,08-10-22,18-10-25
3b44a14a-af26-480c-a63c-fe545764c27d,akempton6m,561-125-0099,skempton6m@ebay.com,TRUE,Braxton Lane,3 Fulton Point,Austin,09-10-22,09-01-25
0c2b6f43-9e1e-4535-98b9-762890ffcf03,sfeechanhb,397-427-9900,hfeechanhb@cpanel.net,TRUE,Henry Holloway,74 Kings Street,Washington DC,12-10-22,05-03-25
02c1b489-8644-4dbe-b4e7-912fb46d19c7,pbohlje7,555-874-7002,hbohlje7@nih.gov,TRUE,Sophia Ramirez,3663 Graceland Point,Austin,13-10-22,13-04-25
f6acd64c-c129-4730-b57d-fb6b1d3e3834,abitchenog5,451-696-0874,abitchenog5@tinypic.com,TRUE,Dominic Jenkins,210 Northport Street,Boston,13-10-22,10-06-25
0d9585b1-64d5-460c-bade-92357c693e31,sboarercq,545-284-1607,sboarercq@freewebs.com,TRUE,Angel Harrington,643 Heffernan Lane,Nashville,20-10-22,07-09-25
155454bd-e323-4dad-97dc-2878048e500f,hbenediktovichhi,146-761-8198,mbenediktovichhi@archive.org,TRUE,Carter Bishop,,Portland,24-10-22,18-03-25
eb4e8e8d-9c72-42b2-a75c-262dd51ac49d,fheymese8,165-545-9437,cheymese8@hibu.com,TRUE,Mason Griffin,184 Manufacturers Lane,New York,26-10-22,19-10-25
bfbef88e-b787-4e7b-a1aa-026698c87ddf,sbehninckgu,837-248-2104,cbehninckgu@buzzfeed.com,FALSE,Eli Shepherd,48 Basil Alley,Seattle,16-11-22,17-06-25
c90fb602-a878-4aca-8151-b93b93d1f8c1,bboeter2w,654-357-3735,scareswell2w@bloomberg.com,TRUE,Sloane Duke,3 Alpine Lane,Washington DC,18-11-22,01-12-24
e3d62d7e-fe01-4292-a273-cbedc9d3e924,abeddardfd,957-424-7984,rbeddardfd@yelp.com,TRUE,Mason Krause,29 Kings Lane,Madison,21-11-22,08-10-25
e4ae9e70-ba6b-42c4-8f16-e78ef4a7f93c,lmollatt1q,895-434-5634,amollatt1q@symantec.com,TRUE,Autumn Riley,31 Hallows Street,Boston,22-11-22,19-06-25
7e350d5c-3a9f-41f9-ade3-a605388355b7,skimpton78,788-572-4555,ekimpton78@chronoengine.com,TRUE,Jason Shepherd,71000 Corry Plaza,Seattle,22-11-22,18-05-25
3ab4adee-ba03-43f0-a79e-4af0272fc5f0,hshilladayh9,640-692-0396,lcarletonh9@xing.com,TRUE,Samuel Cross,27205 Stuart Crossing,Washington DC,29-11-22,08-12-24
20a75ffa-08de-4d05-8eac-22f40e57e40c,jdaice1v,998-248-9143,wdaice1v@liveinternet.ru,TRUE,Aaliyah Baldwin,94 Rockefeller Crossing,Austin,07-12-22,12-12-24
d15bfc3d-19e9-4ecb-b1a7-61f6fdc07dc3,kambroisec6,427-302-7913,sambroisec6@jigsy.com,FALSE,Colton Webb,03676 Fairfield Trail,Boston,09-12-22,31-05-25
d2c6af3c-1a58-4500-8486-a20d65387ddf,pfriman89,354-193-1028,afriman89@blogger.com,FALSE,Santino Sanford,961 Portage Hill,Des Moines,11-12-22,17-12-24
50b4bc47-1a57-4f22-8890-57e3c9b92905,crichie6v,713-750-2383,srichie6v@slashdot.org,TRUE,Roman Brady,,San Jose,20-12-22,10-03-25
e7f140e3-331f-4d24-806f-715847911fd4,abridgnell96,,hbridgnell96@aol.com,TRUE,Maverick Jacobs,8087 Oxford Hill,Washington DC,21-12-22,05-04-25
1de8463a-aaab-4442-8b3d-a195ed10dc8b,vburgoynea3,688-279-0044,lburgoynea3@sun.com,TRUE,William Holloway,4 Village Green Road,Washington DC,27-12-22,04-05-25
5c6e3a6e-89b6-480c-b87d-6ee8847b8a7e,tolorenshaw17,,acrosskell17@e-recht24.de,FALSE,Zoe Fisher,38 Twin Pines Terrace,San Francisco,28-12-22,18-10-25
275b24f1-2dbc-40bb-88ee-f8e9b192f077,dmacalasterck,451-272-6191,dmacalasterck@loc.gov,TRUE,Nathan Phelps,0492 Dakota Lane,San Jose,29-12-22,17-12-24
3f34272c-f0f4-43eb-9b0d-ac0fe94b5051,clandrickhh,505-399-2294,sbonnysonhh@biglobe.ne.jp,TRUE,Wyatt Monroe,011 Waxwing Avenue,Charlotte,05-01-23,23-10-25
cfa187ac-568c-4907-966e-f786d0e53582,mbrennen2e,692-694-4733,zbrennen2e@alibaba.com,TRUE,Adalynn Norman,06700 Dapin Circle,Seattle,16-01-23,30-05-25
37021f1f-7445-4f99-92f3-6466f8fa7154,mduckwithh,939-455-2716,cduckwithh@blinklist.com,TRUE,Ella Cox,035 Valley Edge Street,New York,18-01-23,30-08-25
a49ed267-b9bd-48d7-8ce8-818b5ba5c8d3,galldridgeg3,676-175-7260,walldridgeg3@chicagotribune.com,TRUE,Isaiah Perry,9 Farwell Place,Boston,04-02-23,06-07-25
fa4ea72e-eefe-461a-8011-018f6cdce2c1,ngratrex14,726-957-5249,hgratrex14@imageshack.us,TRUE,Ellie Rivera,804 Eastlawn Circle,Washington DC,08-02-23,23-01-25
5d26b60f-9b1c-4230-aa05-28b0809b41fd,ctabourin19,983-591-3151,rtabourin19@mail.ru,TRUE,Hannah Reyes,37 Menomonie Lane,San Francisco,08-02-23,26-05-25
31286d2e-4b14-4e18-b10a-50ee58f0338b,ttrice8v,241-185-1589,ltrice8v@hhs.gov,TRUE,Isaiah Perry,16046 Marcy Park,Boston,14-02-23,09-12-24
5b80f103-4cca-442b-9f32-67056e27da75,fdowseyd3,607-495-7442,adowseyd3@skype.com,TRUE,Emmett Barlow,771 Oak Valley Lane,Boise,19-02-23,30-10-25
d26e975d-d758-42d9-8fd8-8f008c9c3cb4,zdunkerley6k,834-762-0717,bdunkerley6k@marriott.com,TRUE,Landon Stone,604 Old Gate Place,Austin,20-02-23,15-08-25
0128c5eb-2d6f-4bde-a4d9-247089d2b663,ctutchell8g,149-535-1561,etutchell8g@vimeo.com,TRUE,Bentley Brooks,,San Francisco,21-02-23,26-08-25
7c805a13-343b-4f37-84f8-0c3068cc6ecd,olowensohnf1,634-663-1960,rlowensohnf1@ucoz.ru,TRUE,Isaiah Duke,6067 Eagan Way,Raleigh,24-02-23,13-07-25
0682114e-3b99-4990-98c2-cec6ae1d8d48,kshambroke4o,481-197-8176,cshambroke4o@un.org,FALSE,Charles Briggs,,New York,26-02-23,18-01-25
b46b9e11-e153-4f2b-a8f6-49eb63298b89,dethertonj6,119-648-2168,oethertonj6@zimbio.com,FALSE,Lucas McCarthy,2 Delladonna Court,Seattle,10-03-23,31-07-25
d5a9da49-7dd3-42ec-bf11-7796aa8f4c49,awellsman5v,547-823-8340,acotman5v@google.es,TRUE,Zion Barlow,9002 Waubesa Crossing,Boise,09-04-23,20-05-25
364d770a-5918-489d-bb2e-934026e38a9d,ktomaskov8s,631-992-2705,stomaskov8s@elegantthemes.com,TRUE,Grayson Wallace,306 Onsgard Drive,Seattle,18-04-23,14-10-25
b8331b02-4ce2-4846-ba58-bd3452a06ab7,arhuleer,859-840-2913,jrhuleer@deliciousdays.com,FALSE,Eli Armstrong,05452 Coleman Center,Austin,26-04-23,09-04-25
b3141126-49cb-4bc3-a20e-f8560214f2e0,tscatcher5u,646-480-6772,ccammacke5u@netscape.com,TRUE,River Sanford,04533 Fordem Terrace,Des Moines,28-04-23,08-01-25
e8215a60-18b2-4cc7-8597-fd8f055c7704,rpitkeathley7c,667-616-8750,tpitkeathley7c@cnet.com,TRUE,Ryker Norman,45 Leroy Terrace,Boston,08-05-23,12-11-25
a7625e72-fadf-4bf8-8554-9622acc3fbcb,hjiruh1,140-999-9847,tjiruh1@dyndns.org,TRUE,James Chambers,,Boston,15-05-23,29-06-25
be054df8-784e-4588-aff3-b2f6c2428ec3,mwarkeca,687-118-2253,mwarkeca@taobao.com,TRUE,Jonathan Barker,48 Autumn Leaf Trail,Austin,06-06-23,17-03-25
5830612d-bc20-45a8-96a2-b8688d15f3dd,blaughrenff,558-955-7781,tlaughrenff@youtu.be,TRUE,Aiden Yates,3381 Prairie Rose Way,Charleston,15-06-23,15-02-25
654ae9eb-a1eb-4969-8a31-ae975c36497b,ogillimghamb8,989-911-7620,ebeynb8@bbc.co.uk,TRUE,Andrew Porter,76 Fallview Street,Boston,18-06-23,16-03-25
193ff851-1e85-4b2c-b511-e794c8525564,kstopforth7d,577-752-2629,mtome7d@china.com.cn,TRUE,Tyler Webb,495 Glacier Hill Plaza,Boston,19-06-23,03-06-25
9c5ab94d-03a8-446d-87ae-0595da73a8fe,rthrasher1r,126-756-2876,ethrasher1r@unesco.org,TRUE,Serenity Stevens,067 Shelley Plaza,Austin,12-07-23,18-06-25
6fdad0b2-21a4-40e2-999a-977d1926ca09,bqueyeiro6l,843-236-6220,rqueyeiro6l@bandcamp.com,TRUE,Dominic Mills,,Austin,12-07-23,05-08-25
5e4755d5-5233-4cb2-b6f2-873393fedaac,alornsen5z,153-456-9834,clornsen5z@1688.com,TRUE,,5405 High Crossing Crossing,Corpus Christi,14-07-23,08-04-25
ee4bdadb-0479-485a-a6fc-d644d4c6fad2,rgieves49,431-412-8493,ngieves49@cnet.com,TRUE,Levi Riley,6120 Bobwhite Crossing,Austin,25-07-23,29-05-25
7cfa9c4b-00fa-43ff-b5b8-a99176b5e7cd,aclooney4q,824-326-9147,jblenkhorn4q@alibaba.com,FALSE,Adrian Madden,9726 Victoria Junction,New York,30-07-23,17-02-25
a6ea7fd3-059e-4d16-b118-17d25c1bbda1,jsheeresge,117-915-6568,csheeresge@hp.com,TRUE,Henry Jacobs,24699 Di Loreto Parkway,Washington DC,01-08-23,23-02-25
6f83ea4d-7da9-43bc-8911-ac4deddf7676,edenisyuki,255-612-9104,rdenisyuki@deliciousdays.com,TRUE,Elizabeth Howard,73873 Nancy Terrace,New York,13-08-23,27-03-25
097d19c9-fe53-41bc-a3fa-534e3c47e8f9,ndelavaletteparisotf4,164-282-3156,adelavaletteparisotf4@homestead.com,FALSE,Aaron Harrington,0 Gerald Drive,Nashville,16-08-23,25-05-25
92c7c4c9-d040-4213-9fc7-ffff3d12c1c7,lyorston7v,482-488-2204,fyorston7v@cnn.com,FALSE,Jett Monroe,1422 Dawn Place,Charlotte,21-08-23,08-11-25
abd877ae-a20b-4534-b5f0-da04890b482f,lwollard99,504-537-1517,lwollard99@simplemachines.org,TRUE,Nicholas Brady,0 Esker Lane,San Jose,05-09-23,22-02-25
7f88132e-c1c5-45dd-9849-b3cf576a0347,troxburchh6,504-895-3568,froxburchh6@dedecms.com,FALSE,Michael Armstrong,0925 Barby Way,Austin,16-09-23,06-06-25
cf36ef91-d3e8-4225-ae3f-40a031a669e9,blearmonthfr,,klearmonthfr@drupal.org,TRUE,Maverick Bryant,96 Dwight Avenue,New York,26-09-23,13-01-25
e15864f3-5e11-4048-a147-fd2d435a6f06,oengall4h,,pengall4h@miibeian.gov.cn,TRUE,Thomas Shelton,41 Clemons Pass,San Francisco,30-09-23,11-10-25
6f8b6e8e-d527-47ec-ad10-c06db65ceeb1,vmaciejakbv,402-203-2731,feastmeadbv@intel.com,TRUE,Jackson Erickson,,New York,18-10-23,02-10-25
59d0b7ee-2cb6-46ad-8ca8-3fb58c8d26b4,sweedall3e,866-650-6141,cweedall3e@exblog.jp,TRUE,Dream Salazar,0112 Redwing Avenue,Ann Arbor,23-10-23,09-04-25
c28d0367-a98c-499d-b65a-a033da052134,agunnygd,427-604-5025,dgunnygd@state.gov,FALSE,Elijah Little,553 Vermont Terrace,Washington DC,27-10-23,29-06-25
02bf0600-bf7b-4cae-9e5f-d5461ac3eab5,lwhildeci,444-969-7229,nwhildeci@imgur.com,TRUE,Jordan Holloway,8216 Colorado Point,Washington DC,30-10-23,16-10-25
b359e6cb-168c-4b04-8a43-6cebcbf3f190,alippett71,197-447-5824,aknibbs71@dot.gov,TRUE,Nathaniel Griffin,15 Pine View Trail,New York,04-11-23,24-04-25
2c6dfff7-1ac8-44f3-9a22-178f95b299d5,ctanslie7g,932-724-4406,ktanslie7g@amazon.com,TRUE,Eli Lyons,840 Hansons Trail,Austin,05-11-23,22-02-25
fa481978-0a81-49b4-a99a-83a771c7d2f0,kpurcellh3,229-412-1128,ppurcellh3@amazon.co.uk,TRUE,Alexander Barker,7214 Forest Dale Parkway,Austin,24-11-23,26-03-25
77d781af-2176-47a5-8172-e0b5686d05a3,bduckhouseis,741-553-9868,bgammageis@edublogs.org,TRUE,Alexander Jacobs,20 Riverside Point,Washington DC,18-12-23,01-05-25
55f0d242-ce9a-46ff-858a-e5904a308a15,ltynemouthea,120-858-9256,ktynemouthea@nhs.uk,FALSE,Logan Briggs,396 International Lane,New York,24-12-23,01-07-25
67afb835-e4e0-4fb4-b99b-d530e6818028,cbroadwell2x,,ebroadwell2x@cargocollective.com,TRUE,Tessa Monroe,5 Northport Alley,San Jose,01-01-24,08-11-25
6183bc3e-838b-464a-8c8e-d6f3f60cb782,bcasaccia66,528-656-8583,lcasaccia66@latimes.com,TRUE,Thomas Rivera,95088 Sullivan Pass,New York,01-01-24,13-09-25
757b7c69-ce25-4dab-9511-078a4a8b2105,tmaria29,542-233-6169,tyearby29@telegraph.co.uk,TRUE,Adeline Pope,36854 Oneill Hill,New York,05-01-24,19-05-25
74a03d10-6463-428e-baaf-382d26af9a80,mskegg58,391-950-8958,jvanderwalt58@example.com,TRUE,Everett Cross,3338 Grover Trail,Washington DC,07-01-24,14-02-25
89d08c93-2214-4957-9747-0a6846d632b3,mjepps9y,710-484-7850,sjepps9y@phoca.cz,TRUE,Daniel Armstrong,5 Canary Trail,Austin,12-01-24,09-11-25
6cea52f1-b2af-4995-9d82-f0c801aed854,icolemanfs,500-497-6578,jcolemanfs@army.mil,TRUE,Eli Rivera,064 Chinook Street,New York,12-01-24,20-01-25
bea20503-ef52-4d19-83f9-6f661bc0e557,danthoniesam,822-617-0414,banthoniesam@deviantart.com,TRUE,Nathan Yates,64 High Crossing Place,Charleston,15-01-24,27-10-25
6dfa14ce-78fa-44c2-b8fe-fd81f36ef4e6,bodeorangf,646-388-2791,nodeorangf@army.mil,FALSE,William Baldwin,792 Hagan Alley,Washington DC,15-01-24,06-08-25
25c1f9d1-6ed1-42ab-8fd1-21f3c57391ad,mtick87,972-973-9722,mtick87@bloglovin.com,TRUE,Kayson Salazar,09 Shopko Court,Ann Arbor,17-01-24,11-04-25
7509b3ac-a2d5-4a4c-b74d-05210c2c4d33,wgallemore5i,642-451-6717,lgallemore5i@netscape.com,TRUE,Diego Harrington,22 La Follette Alley,Nashville,18-01-24,20-06-25
5a6b98dc-697f-4087-8019-335652ac9a92,cguthrum67,522-100-3758,jguthrum67@ucla.edu,TRUE,Charles Hayes,6382 3rd Court,New York,21-01-24,15-02-25
eeabf235-d1d8-46e5-b886-ad380616eb9e,krustedgefo,566-477-1928,irustedgefo@state.gov,TRUE,Grayson Brooks,7861 Hollow Ridge Court,San Francisco,22-01-24,19-11-25
7ce7a634-daf2-481e-9708-0a79f91d94f7,klargenbr,644-271-4038,alargenbr@comcast.net,TRUE,David Warner,1 Kedzie Junction,San Francisco,07-02-24,24-08-25
a3e29692-842c-4391-b191-517c59c530f9,robyen,758-790-2482,kobyen@npr.org,TRUE,Owen Lyons,478 Farragut Crossing,Austin,20-02-24,03-03-25
b52abc9e-691d-4095-9b8c-68a071a719b7,crobberts7l,663-105-4514,drobberts7l@fotki.com,FALSE,Axel Berry,2739 Milwaukee Point,Washington DC,24-02-24,07-09-25
d2504c8b-4a88-471b-b2a2-10a040b2c551,cbofieldce,696-639-5331,rbofieldce@scribd.com,FALSE,Jaxon Berry,7358 Ilene Pass,Washington DC,05-03-24,19-05-25
2b4fcf5b-6e64-4914-b02e-3e55014c61cb,mwyllt64,945-977-8508,dwyllt64@unblog.fr,TRUE,Ashton Foster,6 Rockefeller Junction,San Francisco,16-03-24,29-07-25
a5f29f98-cec4-4bcf-a389-fa3f2216113b,pchurcher4t,844-865-0872,achurcher4t@boston.com,TRUE,Christopher Shepherd,932 Londonderry Hill,Seattle,21-03-24,19-04-25
a6472f21-bebd-47dd-90ce-8c2e9f22ae0d,lcooleac,587-792-7969,scooleac@epa.gov,FALSE,Joseph Caldwell,97895 Thackeray Park,Salt Lake City,24-03-24,29-12-24
e399758b-6bdf-4660-9c07-80fa79c1f156,randrzejowski3k,783-913-6676,bandrzejowski3k@timesonline.co.uk,TRUE,Siena Henson,86915 Forest Run Park,Spokane,27-03-24,05-08-25
c9f4fc3f-d13f-4b69-849e-33bfaa6c8adc,thaggerty1z,818-170-0762,wwoodsford1z@goo.ne.jp,TRUE,Ariana Horton,,Washington DC,05-04-24,17-11-25
f9f5a797-755a-44f1-bb09-8215b9d504bc,dqueyeiro4k,659-905-1817,nqueyeiro4k@globo.com,FALSE,Josiah Burns,0 Vermont Hill,San Francisco,18-04-24,14-05-25
f88b874f-b1fd-43bd-a50a-c36effc665a4,bgreengrassg1,222-126-9020,bgreengrassg1@xinhuanet.com,TRUE,Caleb Porter,6 Center Junction,Boston,21-04-24,22-09-25
fccae5d8-3e93-4694-bc43-75d3323df5e4,ckeamgp,741-797-6328,skeamgp@dion.ne.jp,TRUE,Owen Briggs,,New York,22-04-24,16-05-25
a5ee9583-70df-4a2c-b751-ad4217235d93,aruft,532-316-2545,pruft@vistaprint.com,TRUE,Riley Scott,66 Nobel Center,Boston,29-04-24,02-04-25
fea97d6d-a914-438c-9141-c7e6222cc982,tattreedaf,551-548-4777,aattreedaf@weather.com,TRUE,Daniel Vaughn,663 Vera Point,Atlanta,03-05-24,24-07-25
3ed3f5dd-2c69-425e-8809-09065df149f9,hlorking4i,222-881-1686,blorking4i@ocn.ne.jp,TRUE,Hudson Horton,,San Francisco,04-05-24,03-01-25
15c237b5-9ffc-4c68-9433-65616463fb01,mtaysbilai,798-948-4146,ntaysbilai@thetimes.co.uk,FALSE,David French,891 Bayside Way,Burlington,08-05-24,26-04-25
491d583c-358f-4495-98d9-c814bd98cacf,eshinnero,969-447-7408,cshinnero@opensource.org,TRUE,Madison Cooper,7630 Washington Circle,Seattle,14-05-24,05-03-25
9d430068-eb6f-44ae-ae1e-727874833dbf,adanfordj4,386-213-3380,njukubczakj4@salon.com,TRUE,Gabriel Johnston,34270 Fulton Court,New York,15-05-24,04-01-25
2a817b29-22d1-4882-b195-64ce067a6b7b,eyates1m,609-572-1726,fyates1m@ft.com,TRUE,Allison Stone,928 Hollow Ridge Park,Boston,18-05-24,09-02-25
52a2476a-7000-4e56-94c4-adcb14e5bc9e,lmcmeekingfj,777-189-4150,bmcmeekingfj@techcrunch.com,TRUE,Jacob McKnight,7 Glendale Lane,Richmond,18-05-24,04-02-25
8c6ec381-94e6-44ec-958a-7cb8ec4d2539,gofenei,714-569-4933,kofenei@about.com,TRUE,Nathan Brewer,2173 Dottie Avenue,Boston,19-05-24,23-04-25
7f242630-67f3-4279-95c2-0c159cc922a5,kflewetta,615-110-5756,aflewetta@elegantthemes.com,TRUE,Mia Edwards,3018 Scofield Court,Raleigh,20-05-24,27-09-25
1298b31d-a335-490a-81e1-4e0b020760f4,mmarkiehf,816-279-0603,bmarkiehf@guardian.co.uk,TRUE,Logan Whitaker,61770 Longview Center,Minneapolis,20-05-24,04-08-25
13ee1212-b062-4680-92b0-9ee019616f16,jarnott4g,916-975-9655,iarnott4g@flickr.com,TRUE,Adam Brady,,San Jose,23-05-24,18-02-25
f25a2d50-ff20-4c84-98cd-c0377d9b8f29,hiles69,272-669-2605,jiles69@google.de,TRUE,Connor Fisher,52982 Esch Center,New York,23-05-24,01-06-25
9fceb4c1-a66b-427e-9bc4-e52d15f32e9e,rgrahl0,253-307-0183,cgrahl0@boston.com,TRUE,Leyla Hassan,2268 Starling Court,Maine,25-05-24,25-01-25
a3975b79-9c23-4fb3-927b-9a623cb38a7d,pwauchope55,400-129-2799,rwauchope55@upenn.edu,TRUE,Colton Armstrong,483 Dunning Drive,Austin,30-05-24,24-12-24
63e3a543-055c-438d-90b7-0d6b4bafb7b2,hdehailesd4,617-223-7793,wgiabuzzid4@nps.gov,TRUE,Luis Kraus,46 Meadow Ridge Court,Santa Fe,01-06-24,12-01-25
930611af-0a66-48eb-91bb-856871e45eab,wincognaib,804-706-7064,fincognaib@who.int,FALSE,Hunter Hamilton,6329 Manitowish Place,Seattle,01-06-24,14-12-24
3347a3fe-be00-45b4-b8cb-3fed45eb20ae,ljeandel7u,485-303-8384,ljeandel7u@pbs.org,FALSE,Maximus Duke,8639 Mifflin Junction,Raleigh,05-06-24,05-05-25
fe0a81f8-4612-41f3-a08b-c98bd9897bd1,rwelsbybp,,gwelsbybp@a8.net,FALSE,Ethan Shelton,79522 Bluejay Place,San Francisco,06-06-24,22-06-25
1e0ee5c1-d983-453d-b570-1ce9e48798e6,wmartindalej,506-172-6311,rmartindalej@com.com,TRUE,Camila Gray,2427 Warner Hill,Las Vegas,07-06-24,27-04-25
07483d39-d3ed-4257-9f13-151cc76ae55e,yslorach2r,516-264-7756,mslorach2r@icio.us,TRUE,Eden Holloway,3 Crest Line Center,Austin,12-06-24,12-04-25
93e8b14a-1d41-413a-81ae-138f2851dd87,noffill93,890-247-9756,joffill93@reverbnation.com,TRUE,Jonah Stevens,5 Dakota Center,Washington DC,17-06-24,05-11-25
c696c777-3f4b-4357-868c-505aa24300d6,ahiorn2n,834-143-9294,ehiorn2n@seattletimes.com,TRUE,Isla Berry,20 Dwight Park,Austin,22-06-24,25-04-25
8421f94e-6d30-4f56-9192-2aa5ea4f7b3b,rsheehy76,555-125-2987,lsheehy76@histats.com,TRUE,Mateo McCarthy,0 Darwin Way,Seattle,22-06-24,08-10-25
6b5811e7-fc0e-4cd7-84d9-96a39d89070d,ochampkinia,589-577-4071,lchampkinia@sciencedirect.com,TRUE,Cameron Ford,6897 Warbler Trail,Seattle,27-06-24,21-02-25
51e7da3e-56c9-49cf-845b-cb5fe8dd9ad0,bbalinex,499-892-9946,hbalinex@tiny.cc,TRUE,Hannah Bryant,075 Beilfuss Way,Austin,28-06-24,24-12-24
533e6a2a-b967-463b-a61e-718df19819db,gconwelli4,442-878-6001,lconwelli4@1und1.de,TRUE,Evan Foster,4328 Ludington Way,San Francisco,30-06-24,21-04-25
c24e88f5-6477-429f-b044-1300a4f621bb,smeasomep,646-233-1423,hmeasomep@free.fr,FALSE,Christian Tate,54290 Mallory Hill,Austin,01-07-24,10-10-25
896527a3-4174-43a3-8a1a-a799dbd9e7d6,dnovichenkoau,,onovichenkoau@storify.com,TRUE,Jace Ward,1 Pennsylvania Court,San Francisco,06-07-24,23-06-25
00d4c07c-618b-4fe0-a9f8-80af343d71b3,tveregan6w,338-498-4414,lveregan6w@imdb.com,TRUE,Kingston Shelton,19 Lakewood Road,San Francisco,12-07-24,15-06-25
d67225b9-7e15-4341-8656-90c0c1a02ed8,aantonoviciw,,mantonoviciw@typepad.com,TRUE,Matthew Shelton,204 Merry Way,San Francisco,23-07-24,02-08-25
9decd4e3-b8fd-489e-bd51-dce434227265,wleach44,,dleach44@skype.com,TRUE,Wyatt Jenkins,1756 Dryden Crossing,Boston,04-08-24,23-12-24
748929bb-c8db-4854-88e6-b4eef844326c,sskehensbc,829-490-4347,pskehensbc@chron.com,TRUE,Jonathan Jenkins,3 Farwell Street,Boston,05-08-24,20-12-24
f547a5bf-aaf7-42b2-86c6-50cba38bf618,ghambleton7a,250-941-0170,ahambleton7a@youku.com,TRUE,Kaiden Parks,5 Bellgrove Center,Seattle,09-08-24,16-11-25
51c1378c-14a0-42a6-8ec1-508448a58d63,nwestover8p,988-989-3316,fwestover8p@gnu.org,TRUE,Hudson Hamilton,9007 Fordem Crossing,Seattle,15-08-24,29-01-25
8d54cacf-5e2b-49da-ad94-151f3e6c86a7,bjespere4,813-330-9560,kjespere4@goo.ne.jp,TRUE,Ethan Horton,63 Evergreen Crossing,San Francisco,19-08-24,23-04-25
79604b64-b29a-488b-897b-c69e8674625a,swhelanbk,738-580-9681,mwhelanbk@netvibes.com,TRUE,Joshua Little,9 Springs Drive,Washington DC,20-08-24,26-02-25
c1c961d3-fab9-4b4b-886f-610b2ffa5760,oyong15,403-187-8861,mfinnemore15@hud.gov,TRUE,Stella Foster,405 Shasta Way,San Jose,01-09-24,16-05-25
3824418e-dcba-4d06-bae6-fe5d895c500e,rpie6p,751-649-9484,cbaud6p@bloglines.com,TRUE,Josiah Stevens,15984 Portage Terrace,Washington DC,03-09-24,12-09-25
61274958-99f0-4b2c-8ed8-6a183d9a6ecb,nbissett9z,735-585-2552,sbissett9z@deviantart.com,TRUE,James Berry,54 Harbort Center,Washington DC,15-10-24,11-03-25
421fa56c-2b02-46b4-bc2b-3a6d9a12e79c,lvarsey3l,118-684-2973,lvarsey3l@reddit.com,TRUE,Oliver Carter,80 Corry Alley,San Francisco,16-10-24,25-10-25
54cde1f5-0f63-48bf-af88-8ac0863b51bc,tdecourseyao,318-510-6395,wdecourseyao@rakuten.co.jp,TRUE,Owen Barlow,66 Florence Parkway,Boise,20-10-24,21-02-25
6b858b55-987b-4583-8aa7-2d7a17e09218,emcconnal82,671-670-4305,rmcconnal82@unblog.fr,FALSE,Hector Stuart,14 Mitchell Terrace,Dallas,23-10-24,15-11-25
1942a4fd-8c67-4a63-a37c-df63ce6d91b8,coade86,598-676-8129,toade86@xinhuanet.com,FALSE,Gael Krause,8 Reinke Center,Madison,24-10-24,10-06-25
74660ae1-983d-475b-9f14-0cfddaf23724,aparell30,966-205-5814,mparell30@hhs.gov,TRUE,Nina Caldwell,68799 3rd Pass,Minneapolis,09-11-24,24-11-25
6b4de258-4151-4019-948d-2706e2683719,jgullanbo,274-909-6902,jgullanbo@yahoo.co.jp,TRUE,Mason Brady,3373 Hanson Point,San Jose,11-11-24,01-10-25
2a6265e6-c112-4d6b-ab44-90684abfdf43,rmcguffogc9,989-951-0009,cmcguffogc9@ehow.com,TRUE,Nicholas Lyons,028 Fisk Circle,Austin,20-11-24,17-11-25
48326983-096f-4edc-93eb-5ad160c2f623,vkeijser1e,565-597-7880,ekeijser1e@g.co,TRUE,Sadie Graham,458 Toban Road,New York,22-11-24,09-06-25
da58b3a6-b396-42dc-8107-5b236e1b9d37,rdeshorts36,833-164-8381,sdeshorts36@aboutads.info,TRUE,Blakely Shannon,455 Spenser Terrace,San Diego,25-11-24,18-08-25
a506ebd8-d1ab-4674-a61d-f6a327107eef,naugustushj,865-702-6377,kaugustushj@amazon.com,TRUE,Hunter Harrington,7343 Marcy Parkway,Nashville,26-11-24,17-02-25
d34f0942-6403-4299-a58a-71078d420433,olowesja,252-477-8174,plowesja@fda.gov,FALSE,Elijah Parks,,Seattle,30-11-24,30-03-25
d49e8663-91ae-4bd0-9f06-f3c5fc28525c,mpreisti3,757-178-3364,qpreisti3@guardian.co.uk,TRUE,Asher Powell,2981 Hagan Avenue,San Francisco,01-12-24,14-09-25
aa59fb55-1eef-4387-94d9-7ce477b0b416,idevonishc3,,mdevonishc3@mozilla.org,FALSE,Lincoln Parks,,Seattle,03-12-24,13-03-25
c88f24ea-fa8a-47da-bc53-8a3bcf475fc2,lilem91,100-246-0463,dilem91@stumbleupon.com,TRUE,David Hoffman,392 North Trail,Austin,09-12-24,22-11-25
041dc85b-db41-4b26-b191-b1beb3550485,kmattussevich9v,592-392-9290,bmattussevich9v@live.com,TRUE,Matthew Barker,66 Bluejay Lane,Austin,15-12-24,22-10-25
da4f65a5-ad8f-41d7-8efc-62f706b39cc6,pbrumbye18,656-108-4995,gbrumbye18@weebly.com,FALSE,Leah Bryant,6 Summit Parkway,San Francisco,18-12-24,02-07-25
6f9f9f60-3f1b-4c98-9ed7-6d9d47382d7c,dcordoba4p,881-193-8490,gcordoba4p@csmonitor.com,TRUE,Aaron Johnston,36149 Anhalt Junction,New York,23-12-24,21-02-25
aff2e1ab-f98a-42c1-9e85-5da913cbc9d1,ychaytor7i,471-908-5471,vchaytor7i@harvard.edu,TRUE,Kayden Tate,520 Springview Junction,Austin,23-12-24,12-07-25
63aa2c93-9ecf-4b2b-875e-1e0ac38cb922,bmemmory88,382-663-2840,dmemmory88@purevolume.com,FALSE,Cristian Yates,031 Westerfield Lane,Charleston,02-01-25,30-10-25
c24de62d-6b58-4197-bae2-6dcb40c4410f,vmcwilliam9t,559-424-9707,gmcwilliam9t@imdb.com,TRUE,Jackson Chambers,02 Eagan Road,Boston,19-01-25,29-08-25
956fae4a-3fba-43d5-a54f-17167b48754d,sbolzmannfc,811-801-6550,tbennionfc@census.gov,TRUE,Ethan Estes,13819 Hollow Ridge Street,Bend,19-01-25,22-02-25
d33b1f4a-acdd-4852-b130-14f051233f28,vblofield6s,171-363-8859,fblofield6s@fc2.com,TRUE,Miles Jacobs,0 Dovetail Trail,Washington DC,30-01-25,31-08-25
4ee09d5a-4be9-40f7-a9e0-d2eda02e804b,pwhitington4z,853-182-7027,hwhitington4z@springer.com,TRUE,Elias Allen,32 Lunder Junction,Boston,01-02-25,10-08-25
09db4d11-a624-447c-b3e0-53dd03f626a0,dstroband1j,239-677-0493,hstroband1j@surveymonkey.com,FALSE,Willow Perry,5476 Old Shore Terrace,Seattle,06-02-25,15-01-25
a7c7e2ec-e0ff-4dce-b0a6-6f7d8829498c,pbrolechan25,339-607-6560,abrolechan25@ebay.co.uk,TRUE,Jade Briggs,6 Moland Trail,San Francisco,14-02-25,02-07-25
d38ca180-0f7d-483f-9418-1e1617b00fd8,ddrewsonin,437-179-8256,edrewsonin@wufoo.com,FALSE,Nathan Hoffman,8743 Service Junction,Austin,14-02-25,26-11-24
e4c4675b-9bca-44b5-9b1b-fb6ee64ece8f,lwindross9u,673-680-6606,ewindross9u@rambler.ru,TRUE,Isaiah Lyons,0 Spaight Center,Austin,16-02-25,12-02-25
73b1e48e-5e57-4b4c-8eb1-06dcef4369e7,bnorville5g,599-251-4111,jnorville5g@businessinsider.com,TRUE,Ayden Monroe,116 Kipling Place,Charlotte,02-03-25,18-03-25
fb40e89d-d28e-4c97-89fc-ce84345dc0ac,mdonegandx,249-879-6268,sdonegandx@vistaprint.com,TRUE,Andrew Barrett,108 Starling Alley,Washington DC,05-03-25,23-03-25
e6a4de80-2b03-448f-a36d-802645d413c0,mjakaway6o,144-469-6652,rjakaway6o@msn.com,TRUE,Emmett Riley,00 Mcbride Terrace,Austin,07-03-25,15-02-25
a19ea463-aa04-4d47-bcf1-700ca722261f,gyansonsi8,688-573-3571,cyansonsi8@dyndns.org,TRUE,Isaac Barnes,2 Talmadge Lane,New York,10-03-25,29-03-25
e810f7a2-d8a1-488c-8426-678b7c87b45f,icrocroft23,183-794-1082,rcrocroft23@army.mil,FALSE,Paisley Griffin,2 Montana Pass,San Francisco,20-03-25,17-12-24
57de34a2-7470-45e6-9a3f-ec209de2e3d6,gjordansonig,,pjordansonig@de.vu,FALSE,Caleb Peters,9086 Victoria Terrace,Boston,20-03-25,23-02-25
9c8a9f54-07ad-4001-b16d-8b97491e4df6,jmargetts41,443-217-3131,emargetts41@drupal.org,TRUE,Asher Peters,135 Lakewood Alley,Boston,23-03-25,20-01-25
10f16f44-7513-4fb7-9fa5-66cdf36f7695,racedod7,140-212-2578,pacedod7@vkontakte.ru,TRUE,Axel Carter,,San Francisco,24-03-25,15-05-25
80fbc00f-b35d-4522-a08d-a62a5fba9c3f,csnalham38,,msnalham38@admin.ch,TRUE,Cassidy Herring,,Atlanta,27-03-25,19-01-25
66165d17-1b1a-403a-90e9-2e6d05d26033,bnewellbw,451-112-9061,bnewellbw@google.ru,FALSE,Levi Briggs,6 Reinke Trail,New York,04-04-25,06-07-25
bb9f428b-483f-472d-9575-a4d963f149d9,kmountney90,924-204-5178,mmountney90@joomla.org,TRUE,Eli Lane,4928 Jenifer Circle,Austin,18-04-25,24-03-25
e02236d2-bdd9-4729-a3c2-ac9f1966ad9a,ttoopeda,652-155-1513,btoopeda@pbs.org,FALSE,Caden Powell,800 Sauthoff Plaza,San Francisco,18-04-25,17-04-25
55e7c7b9-60f1-45e6-8abe-d58cd6958fed,eyveng6,625-917-8341,syveng6@msu.edu,FALSE,Liam Stone,0 Parkside Alley,Austin,19-04-25,12-05-25
89800549-eb67-4dfb-8c63-f5e439f152c3,pdunnettcx,887-239-0286,adunnettcx@independent.co.uk,TRUE,Damian French,834 Sauthoff Center,Burlington,22-04-25,13-07-25
d94ee35e-6799-4c69-b43b-b8a73d62fffa,goliviem,462-108-1955,uoliviem@networkadvertising.org,FALSE,Isaac Chambers,20464 Esch Hill,Boston,15-05-25,25-05-25
7cceba60-6409-457f-b3c6-e48e4b25c603,phenriedu,268-544-8773,nhenriedu@craigslist.org,FALSE,David Hoffman,8 Knutson Way,Austin,21-05-25,26-08-25
0683d5a4-5442-49c7-9919-ffde09b8414c,mgouldbourn65,651-271-2837,igouldbourn65@yahoo.co.jp,TRUE,Leo Bryant,7 Kings Place,New York,23-05-25,20-04-25
7bd2196b-4b9a-455f-8940-b481a1b85ace,ecrothersfg,981-836-9314,scrothersfg@chronoengine.com,TRUE,Lucas Sanford,6 Pennsylvania Road,Des Moines,08-06-25,19-10-25
420aab38-824b-464e-968b-2d1e33d992dc,rvizeft,290-439-1669,mvizeft@wp.com,TRUE,Lucas Hayes,,New York,10-06-25,29-05-25
083d20f3-c865-43e0-abd2-2a31a8f03a4b,pbrackstoneho,651-294-7201,jbrackstoneho@sbwire.com,TRUE,Lucas Stuart,996 Commercial Plaza,Dallas,11-06-25,16-11-25
f5578d05-66cb-4469-b654-27be674ab3d9,ehoggandm,603-493-1100,nhoggandm@cbc.ca,TRUE,Eli Porter,,Boston,21-06-25,09-10-25
432937ba-c8d7-431b-a0ae-76491d78563a,acandeyeu,194-738-0665,rcandeyeu@dailymotion.com,FALSE,Samuel Cross,2962 Miller Junction,Washington DC,28-06-25,26-10-25
44ae955c-6f84-4147-9ac9-03227e36e4a0,emckeeversfk,467-277-3197,jmckeeversfk@latimes.com,TRUE,Alexander Henson,131 Dahle Terrace,Spokane,01-07-25,24-03-25
b5689314-26cb-4782-908f-b2eea14f27df,svedyashkin8k,763-666-4452,jvedyashkin8k@phoca.cz,FALSE,Declan Rivera,88216 Debs Hill,New York,09-07-25,02-08-25
a697d553-3147-45f7-ad35-05dcfc5fadba,bbullan6q,659-342-5901,tbullan6q@google.com,TRUE,Elias Barrett,47 Gateway Alley,Washington DC,11-07-25,05-08-25
8a8412a3-18eb-4032-8971-3d1e0abc7795,ddownham56,429-417-2905,kdownham56@wsj.com,TRUE,Roman Berry,7 Debs Place,Washington DC,20-07-25,17-11-25
3da9816d-8206-4b2b-8e6f-61fe96865ee7,uaddicoted5,872-536-5699,eaddicoted5@washingtonpost.com,TRUE,Leo McKnight,06732 Bowman Lane,Richmond,20-07-25,14-12-24
89952811-5194-49f4-a72a-a8af8d73f849,epetworth9a,942-259-5692,wpetworth9a@chronoengine.com,TRUE,Elias Shelton,4 Fair Oaks Road,San Francisco,29-07-25,12-02-25
eba9ad11-a5f8-43f7-a1fa-8d8fc09ff6c3,pryriej5,348-704-8839,mryriej5@tinyurl.com,FALSE,Michael Madden,4998 Fairview Drive,New York,30-07-25,20-10-25
e04b2ae8-c1a3-4ecb-8ff1-dd12476ac95f,krowen1l,730-113-8773,krowen1l@ask.com,FALSE,Kinsley Jenkins,,Seattle,02-08-25,25-01-25
b88c9b2b-f8c0-43f8-8b83-2b983bd521af,warnholdtdr,971-233-2610,harnholdtdr@123-reg.co.uk,TRUE,Michael Stone,2 Anderson Hill,Austin,02-08-25,01-10-25
598ba348-4d2e-41f1-9dab-e9dd76fdb215,fgeldeford81,,mgeldeford81@sitemeter.com,FALSE,Ezekiel Vaughn,36 Crescent Oaks Circle,Atlanta,03-08-25,21-01-25
772a88e1-be95-4fd3-aeb0-b42eeb8601bf,bkingsmillie,993-216-8685,jkingsmillie@etsy.com,FALSE,Mason Wallace,13 Hauk Place,Seattle,03-08-25,17-11-25
764bb84c-86d8-4c7e-b5bf-5539e2e736fb,atrytsmancd,249-161-6323,rtrytsmancd@163.com,TRUE,Isaiah Armstrong,89732 Prairie Rose Circle,Austin,10-08-25,07-02-25
024612e4-f9b3-45b5-852b-fd859abfadb6,twalenta48,659-366-7502,lwalenta48@sbwire.com,TRUE,Eli Hoffman,9 Mockingbird Place,Austin,11-08-25,12-10-25
7a1f9c9e-10fb-45d7-bb97-518ccbfb73a8,ajapp4s,488-612-5206,sjapp4s@cbc.ca,FALSE,Ezra Pope,56 Algoma Trail,Seattle,28-08-25,25-01-25
38eb955d-5d21-4e52-ba77-af9a3e1c5346,dvampouille3v,670-247-0609,gvampouille3v@scientificamerican.com,TRUE,Michael Ford,7 Blaine Lane,Seattle,02-09-25,13-09-25
2c386824-8c50-4af3-bf73-347e2eb3b79d,rocahsedym,649-401-7779,aocahsedym@sohu.com,TRUE,Scarlett Powell,43 Bultman Hill,Seattle,03-09-25,09-10-25
e768c28c-17b7-4d3d-8d2b-5e1d14ce6255,kbrumhame2,420-508-0663,ibrumhame2@walmart.com,FALSE,Liam Brady,958 Bashford Plaza,San Jose,03-09-25,26-08-25
9cb78a49-be52-4f76-8737-4d2cd76cc44e,kwhiskerd1y,909-386-0795,agrayer1y@answers.com,FALSE,Madeline Shelton,4245 Bunker Hill Street,Washington DC,06-09-25,27-07-25
067138a5-ca84-4b22-a683-09f938379a81,vfacey98,151-738-4761,cetteridge98@instagram.com,TRUE,Dominic Burke,90 Myrtle Way,San Jose,06-09-25,02-06-25
c6245085-8270-4a8b-a82a-f6516c80de7d,gworsom3y,958-850-1858,lworsom3y@wufoo.com,TRUE,Lucas Sullivan,11872 Graedel Way,Seattle,16-09-25,23-05-25
9e3e1d4e-206e-4b05-913c-bff1fd2b728c,lbiaggioli77,351-616-8530,kgaveltone77@ovh.net,TRUE,Sawyer Pope,53996 Mayfield Circle,Seattle,23-09-25,07-12-24
1c4def84-f1df-4641-85d7-1bc86ae08684,ufontelcb,344-729-9935,tfontelcb@buzzfeed.com,TRUE,Hunter Tate,813 Anniversary Lane,Austin,30-09-25,09-09-25
2ae55d42-9496-4733-bd35-9768b14f9da1,koverellga,502-100-4723,ioverellga@google.co.uk,FALSE,Mason Riley,588 Loftsgordon Junction,Austin,04-10-25,17-02-25
cb214513-aaa4-4658-9e40-612ab675830b,gnance3p,,knance3p@guardian.co.uk,TRUE,Mateo Foster,0 Hermina Avenue,San Francisco,21-10-25,29-04-25
c12a0051-8573-41cd-9ae1-8d5b02aa4af1,clindemann4v,186-591-9723,dlindemann4v@yale.edu,FALSE,Ian Parks,7629 Aberg Court,Seattle,21-10-25,18-08-25
1517299a-55af-4fcc-b89a-8149d40af6bf,pdundonbz,308-997-5450,cdundonbz@mac.com,FALSE,Jayden McCarthy,4029 Susan Lane,Seattle,27-10-25,01-05-25
9502c8a9-a441-4407-bb22-e908971c3e08,drossonbl,,arossonbl@livejournal.com,TRUE,Henry Jacobs,3330 Schurz Hill,Washington DC,28-10-25,13-01-25
fccf1aa9-ac2d-4be0-aedc-31aa04a0c915,ggrugerr8r,699-118-9234,bpostill8r@themeforest.net,TRUE,Leo Sullivan,22602 Novick Avenue,Seattle,07-11-25,03-02-25
91b19a3d-9f1b-43b6-b383-c80b8d3c232e,mhendrickxbm,,bhendrickxbm@com.com,TRUE,William Baldwin,136 Butternut Pass,Washington DC,08-11-25,07-09-25
9bfe9c8b-492f-46cf-8579-2bc97f922388,iboate5b,750-103-2228,gboate5b@hp.com,TRUE,Xavier Baxter,64 Shoshone Trail,San Jose,09-11-25,28-01-25
8ca996b4-f7bc-4fa8-9570-a9aaa4212ca1,hstampr,315-175-4523,mstampr@census.gov,TRUE,Penelope Adams,82 Burning Wood Street,Boston,11-11-25,04-06-25
49b6ae3a-bc93-4a77-afc4-594defbce310,tspurryeraj,212-282-4093,lspurryeraj@imdb.com,FALSE,Alexander Estes,82 Pawling Lane,Bend,19-11-25,21-09-25
20c8b851-de9b-449b-92fa-4d3848860fb7,eosburni2,309-606-3355,cosburni2@go.com,TRUE,Leo Brooks,4 Shasta Trail,San Francisco,20-11-25,18-09-25
